br_id,name,state,region,owner,operator,location,longitude,latitude,project,dam_type,reservoir,national_id,watercourse,original_construction,spillway_type,crest_elevation,url
dam_20,Agate Dam,Oregon,Pacific Northwest,Columbia-Cascades Area Office,Rogue River Valley Irrigation District,11 miles NW of Medford,-122.7723,42.4155,Rogue River Basin.,Zoned Earthfill,Agate,OR00422,Dry Creek,1965-1966,Uncontrolled bathtub,1520,https://www.usbr.gov/projects/index.php?id=20
dam_261,Agency Valley Dam,Oregon,Pacific Northwest,Snake River Area Office,Vale Oregon Irrigation District,"15 miles north of Juntura, Oregon",-118.154354,43.9117446,Vale,Zoned Earthfill,Beulah,OR00589,North Fork of the Malheur River,1934-1935,"Concrete-lined chute located on the right abutment, controlled by three 18-foot-wide by 17-foot-high radial gates.",3348,https://www.usbr.gov/projects/index.php?id=261
dam_21,Alcova Dam,Wyoming,Great Plains,Wyoming Area Office,NA,"30 miles southwest of Casper, WY",-106.7194,42.5483,Kendrick,zoned earthfill,Alcova,WY01290,North Platte River,1935-1938,NA,5510,https://www.usbr.gov/projects/index.php?id=21
dam_22,Almena Diversion Dam,Kansas,Great Plains,Nebraska-Kansas Area Office,Almena Irrigation District No 5,NA,-100.10041,39.76667,PSMBP - Almena,NA,NA,NA,Prairie Dog  Creek,1967,NA,2172.5,https://www.usbr.gov/projects/index.php?id=22
dam_23,Altus Dam,Oklahoma,Great Plains,Oklahoma-Texas Area Office,Lugert-Altus Irrigation District,NA,-99.3,34.8833,W. C. Austin,NA,Lake Altus,OK02500,"North Fork, Red River",1941-1945,NA,1564,https://www.usbr.gov/projects/index.php?id=23
dam_263,American Diversion Dam,New Mexico,Upper Colorado,NA,NA,NA,NA,NA,Rio Grande,NA,NA,NM82924,Rio Grande,1938,NA,3684,https://www.usbr.gov/projects/index.php?id=263
dam_24,American Falls Dam,Idaho,Pacific Northwest,Upper Snake Field Office,Upper Snake Field Office,"American Falls, Idaho",-112.8748,42.7787,Minidoka,Concrete Gravity and Zoned Earthfill,American Falls,ID00274,Snake River,1925-1927,Radial Gates,4366.5,https://www.usbr.gov/projects/index.php?id=24
dam_25,Anchor Dam,Wyoming,Great Plains,Owl Creek Irrigation District,NA,NA,-108.8167,43.6833,Owl Creek,NA,Anchor,WY01298,"South Fork, Owl Creek",1957-1960,NA,6452.5,https://www.usbr.gov/projects/index.php?id=25
dam_259,Anderson Ranch Dam,Idaho,Pacific Northwest,Snake River Area Office,NA,"28 miles northeast of Mountain Home, Idaho",-115.4501724,43.3595096,Boise,Zoned Earthfill,Anderson Ranch,ID00279,South Fork of the Boise River,1941-1950,"Concrete-lined chute located on left abutment, controlled by two 25-by-22 foot radial gates",4206,https://www.usbr.gov/projects/index.php?id=259
dam_2,Anderson-Rose Diversion Dam,Oregon,Mid-Pacific,NA,NA,NA,-121.5811049,42.0098746,Klamath,NA,NA,NA,Lost River,1921,NA,4064,https://www.usbr.gov/projects/index.php?id=2
dam_4,Angostura Dam,South Dakota,Great Plains,Dakotas Area Office,Angostura Irrigation District,NA,-103.4378,43.3431,PSMBP - Angostura,NA,Angostura,SD01099,Cheyenne River,1946-1949,NA,3199,https://www.usbr.gov/projects/index.php?id=4
dam_3,Angostura Diversion Dam,New Mexico,Upper Colorado,Middle Rio Grande Conservancy District,Middle Rio Grande Conservancy District,"5 miles northeast of Bernalillo, NM",NA,NA,Middle Rio Grande,concrete wall weir structure,NA,NA,NA,1934 and rehabilitated in 1958,NA,5083,https://www.usbr.gov/projects/index.php?id=3
dam_5,Anita Dam,Montana,Great Plains,Montana Area Office,Huntley Project Irrigation District,"Offstream, 6 miles southeast of Ballantine, Montana",-108.0007553100586,45.933431151319745,Huntley,Modified homogeneous earthfill,Anita,MT00567,Yellowstone River (offstream),1933-1937,Uncontrolled concrete-lined chute at north abutment,3,https://www.usbr.gov/projects/index.php?id=5
dam_269,Arbuckle Dam,Oklahoma,Great Plains,Oklahoma-Texas Area Office,Arbuckle Master Conservancy District,NA,-97.027778,34.431389,Arbuckle,NA,Lake of the Arbuckles,OK02501,Rock creek,1964-1966,Yes,920,https://www.usbr.gov/projects/index.php?id=269
dam_6,Arrowrock Dam,Idaho,Pacific Northwest,Snake River Area Office,NA,"13 mi E of Boise, ID",-115.923,43.5952,Boise,Concrete Thick Arch,Arrowrock,ID00280,Boise River,1911-1915,"Side-channel spillway chute located on the right abutment, controlled by six 62-feet-long by 6-feet-high drum gates",3216,https://www.usbr.gov/projects/index.php?id=6
dam_45,Arthur R Bowman Dam,Oregon,Pacific Northwest,Columbia-Cascades Area Office,Ochoco Irrigation District,NA,-120.78738,44.11125,Crooked River,Zoned Earthfill,Prineville,OR00579,Crooked River,1958-1961,Ungated overflow,3270,https://www.usbr.gov/projects/index.php?id=45
dam_48,Arthur V Watkins Dam,Utah,Upper Colorado,Provo Area Office,Weber Basin Water Conservancy District,NA,-112.0909309387207,41.405527084061745,Weber Basin,NA,Willard Bay,UT10112,offstream Storage,1957-1964,NA,4235,https://www.usbr.gov/projects/index.php?id=48
dam_49,Avalon Dam,New Mexico,Upper Colorado,Albuquerque Area Office,Carlsbad Irrigation District,NA,-104.2553,32.4908,Carlsbad,NA,Avalon,NM00132,Pecos River,1907 - height increased in 1912 and again in 1936,NA,3194,https://www.usbr.gov/projects/index.php?id=49
dam_57,B F Sisk Dam,California,Mid-Pacific,South-Central California Area Office,California Department of Water Resources,NA,-121.075,37.0583,Central Valley,NA,San Luis,CA10183,San Luis Creek,1963-1967,NA,554,https://www.usbr.gov/projects/index.php?id=57
dam_271,Barretts Diversion Dam,Montana,Great Plains,Montana Area Office,NA,On Beaverhead River about 11 miles downstream from Clark Canyon Dam.,-112.7403,45.1302,"East Bench Unit, Pick-Sloan Missouri Basin Program",Concrete gate structure with embankment wings,NA,MT82919,Beaverhead River,1963,One 24- by 10- ft radial gate.,5,https://www.usbr.gov/projects/index.php?id=271
dam_51,Bartlett Dam,Arizona,Lower Colorado,NA,NA,"48 miles northeast of Phoenix, Arizona",-111.631856,33.81825,Salt River,Multiple Arch/Buttress,Bartlett Lake,AZ10308,Verde River,1936-1939,Service,1821,https://www.usbr.gov/projects/index.php?id=51
dam_54,Bartley Diversion Dam,Nebraska,Great Plains,Nebraska-Kansas Area Office,NA,NA,-100.38695,40.22509,PSMBP - Frenchman,NA,NA,NA,Republican River,1954,NA,NA,https://www.usbr.gov/projects/index.php?id=54
dam_71,Belle Fourche Dam,South Dakota,Great Plains,NA,NA,NA,-103.67,44.7367,Belle Fourche,NA,NA,NA,Belle Fourch River,NA,NA,NA,https://www.usbr.gov/projects/index.php?id=71
dam_56,Belle Fourche Diversion Dam,South Dakota,Great Plains,NA,NA,NA,-103.83068,44.69057,Belle Fourche,NA,NA,SD01142,Belle Fourch River,1907,NA,2998,https://www.usbr.gov/projects/index.php?id=56
dam_272,Big Sandy Dam,Wyoming,Upper Colorado,Provo Area Office,Eden Valley Irrigation and Drainage District,NA,-109.42863464355469,42.249232907097614,Eden,NA,Big Sandy,WY01387,Big Sandy Creek,1941-1952,NA,6769,https://www.usbr.gov/projects/index.php?id=272
dam_7,Black Canyon Diversion Dam,Idaho,Pacific Northwest,Snake River Area Office,NA,"5 mi NE of Emmett, ID",-116.43756,43.9314,Boise,Concrete gravity,Black Canyon,ID00282,Payette River,1922-1924,Ogee crest controlled by three 64-foot-long steel drum gates,2500,https://www.usbr.gov/projects/index.php?id=7
dam_62,Blue Mesa Dam,Colorado,Upper Colorado,Power Office,NA,NA,-107.3333,38.4533,Colorado River Storage,NA,Blue Mesa,CO01675,Gunnison,1962-1966,NA,7528,https://www.usbr.gov/projects/index.php?id=62
dam_64,Boca Dam,California,Mid-Pacific,Lahontan Basin Area Office,Washoe County Water Conservation District,NA,NA,NA,Truckee Storage,NA,Boca,CA10135,Little Truckee River,1937-1939,NA,5615,https://www.usbr.gov/projects/index.php?id=64
dam_8,Boise River Diversion Dam,Idaho,Pacific Northwest,Snake River Area Office,Boise Project Board of Control,"7 miles SE of Boise, ID",-116.0933,43.5383,Boise,Concrete and masonry weir,Boise Diversion Pool,ID00281,Boise River,1906-1908,Overflow with flashboards,2829.84,https://www.usbr.gov/projects/index.php?id=8
dam_66,Bonny Dam,Colorado,Great Plains,Nebraska-Kansas Area Office,NA,NA,-102.1733,39.6233,PSMBP - Armel Unit,NA,Bonny,CO01300,SF Republican R.,1948-1951,NA,3742,https://www.usbr.gov/projects/index.php?id=66
dam_67,Box Butte Dam,Nebraska,Great Plains,Nebraska-Kansas Area Office,Mirage Flats Irrigation District,NA,-103.0847,42.4583,Mirage Flats,NA,NA,NE01069,Niobrara River,1941-1946,NA,4024,https://www.usbr.gov/projects/index.php?id=67
dam_26,Boysen Dam,Wyoming,Great Plains,Wyoming Area Office,NA,"On the Wind River approximately 17 miles south of Thermopolis, Wyoming.",-108.104,43.2456,"Boysen Unit, Pick-Sloan Missouri River Basin Program",NA,Boysen,WY01299,Wind River,1947-1952,"Concrete lined chute in right abutment, controlled by two 30- by 25-ft radial gates.",4,https://www.usbr.gov/projects/index.php?id=26
dam_254,Bradbury Dam,California,Mid-Pacific,South-Central California Area Office,NA,25 mi NW of Santa Barbara,-119.9833,34.5833,Cachuma,NA,Lake Cachuma,CA10136,Santa Ynex River,1950-1953,NA,766,https://www.usbr.gov/projects/index.php?id=254
dam_28,Brantley Dam,New Mexico,Upper Colorado,Albuquerque Area Office,Carlsbad Irrigation District,NA,-104.34951782226562,32.59686621467839,Brantley,NA,Brantley,NM82901,Pecos River,1984 - 1989,NA,3308.5,https://www.usbr.gov/projects/index.php?id=28
dam_273,Bretch Diversion Dam,Oklahoma,Great Plains,NA,NA,NA,-99.1097,34.93663,Mountain Park,NA,NA,NA,Elk Creek,1975-1977,NA,NA,https://www.usbr.gov/projects/index.php?id=273
dam_274,Broadhead Diversion Dam,Utah,Upper Colorado,NA,NA,NA,NA,NA,Provo River,NA,NA,NA,Boadhead Creek,1953,NA,8198,https://www.usbr.gov/projects/index.php?id=274
dam_31,Buckhorn Dam,California,Mid-Pacific,Northern California Area Office,NA,NA,39.7089589,NA,Central Valley,NA,Buckhorn,CA82938,Grass Valley Creek,1988-1991,NA,2815,https://www.usbr.gov/projects/index.php?id=31
dam_33,Buffalo Bill Dam,Wyoming,Great Plains,Wyoming Area Office,NA,"Six miles upstream from Cody, Wyoming.",-109.11,44.3002,Shoshone,NA,Buffalo Bill,WY01300,Shoshone River,1905-1910,Controlled concrete lined tunnel through left abutment.,5,https://www.usbr.gov/projects/index.php?id=33
dam_36,Bull Lake Dam,Wyoming,Great Plains,Big Horn Basin Field Office,Midvale Irrigation District,NA,-109.0583,43.2097,PSMBP - Riverton Unit,NA,Bull Lake,WY01378,Bull Lake Creek,1936-1938,NA,5813,https://www.usbr.gov/projects/index.php?id=36
dam_37,Bully Creek Dam,Oregon,Pacific Northwest,Snake River Area Office,Vale Oregon Irrigation District,NA,-117.396898,44.0147313,Vale,Zoned Earthfill,Bully Creek,OR00578,Bully Creek,1962-1963,"Overflow crest, plus ten 4' x 4' sluice gates",2529,https://www.usbr.gov/projects/index.php?id=37
dam_40,Bumping Lake Dam,Washington,Pacific Northwest,Columbia-Cascades Area Office,NA,NA,-121.29936,46.8712,Yakima,Zoned Earthfill,Bumping Lake,WA00263,Bumping River,1909-1910,"Ungated overflow, wood chute",3435,https://www.usbr.gov/projects/index.php?id=40
dam_1,C.C. Cragin,Arizona,Lower Colorado,NA,NA,"25 miles NE of Payson, AZ and 125 miles NE of Phoenix, Arizona",-111.1840252,34.5550265,Salt River,Concrete Thin Arch,C.C. Cragin,AZ00021,East Clear Creek,1964,"93-ft long ogee, connecting to a 155 ft long curved (toward the river) super-elevated chute",6720,https://www.usbr.gov/projects/index.php?id=1
dam_42,Caballo Dam,New Mexico,Upper Colorado,Albuquerque Area Office,NA,NA,-107.2917,32.8964,Rio Grande,NA,Caballo,NM00131,Rio Grande,1936-1938,NA,4190,https://www.usbr.gov/projects/index.php?id=42
dam_43,Cambridge Diversion Dam,Nebraska,Great Plains,NA,NA,"2 mi east of Cambridge, NE",-100.12054,40.28511,PSMBP - Frenchman,NA,NA,NA,Republican River,1949,NA,NA,https://www.usbr.gov/projects/index.php?id=43
dam_275,Camp Creek Diversion Dam,California,Mid-Pacific,NA,NA,NA,NA,NA,NA,NA,NA,NA,NA,NA,NA,NA,https://www.usbr.gov/projects/index.php?id=275
dam_46,Camp Dyer Diversion Dam,Arizona,Lower Colorado,Maricopa Water District,NA,"35 miles northwest of Phoenix, Arizona",-112.2705,33.8378,Central Arizona,Concrete and masonry gravity,NA,AZ00113,Agua Fria River,1926,Service,1445,https://www.usbr.gov/projects/index.php?id=46
dam_50,Canyon Ferry Dam,Montana,Great Plains,Montana Area Office,NA,On the Missouri River 27 miles downstream from Townsend Montana.,-111.72786712646484,46.64797101519256,"Canyon Ferry Unit, Pick-Sloan Missouri Basin Program",Concrete Gravity,Canyon Ferry Lake,MT00568,Missouri River,1949-1954,"Overflow section at center of dam, controlled by four 51- by 34.5 ft radial gates.",3,https://www.usbr.gov/projects/index.php?id=50
dam_9,Carpinteria Dam,California,Mid-Pacific,South-Central California Area Office,Carpinteria Valley Water District,NE of Carpinteria,-119.485,34.4067,Cachuma,NA,Carpenteria,CA10138,offstream Storage,1951-1953,NA,385.25,https://www.usbr.gov/projects/index.php?id=9
dam_52,Carson River Diversion Dam,Nevada,Mid-Pacific,NA,NA,NA,NA,NA,Newlands,NA,NA,NV10120,Carson River,1905,NA,4024,https://www.usbr.gov/projects/index.php?id=52
dam_53,Carter Creek Diversion Dam,Colorado,Great Plains,NA,NA,NA,-106.32372,39.21593,Fryingpan-Arkansas,NA,NA,NA,Carter Creek,1976,NA,10133.75,https://www.usbr.gov/projects/index.php?id=53
dam_55,Carter Lake Dam,Colorado,Great Plains,Eastern Colorado Area Office,Northern Colorado Water Conservancy District,NA,-105.2117,40.325,Colorado-Big Thompson,NA,Carter Lake,CO01650,offstream Storage,1950-1952,NA,5769,https://www.usbr.gov/projects/index.php?id=55
dam_10,Cascade Dam,Idaho,Pacific Northwest,Snake River Area Office,NA,Cascade,-116.050279,44.524997,Boise,Zoned Earthfill,Lake Cascade,ID00283,North Fork Payette River,1946-1948,Concrete lined chute at the right abutment controlled by two 21-by-20 foot radial gates,4840,https://www.usbr.gov/projects/index.php?id=10
dam_276,Casitas Dam,California,Mid-Pacific,South-Central California Area Office,Casitas Municipal Water District,NA,-119.3361,34.37,Ventura River,NA,Casitas,CA10139,Coyote Creek,1956-1959,NA,585,https://www.usbr.gov/projects/index.php?id=276
dam_58,Causey Dam,Utah,Upper Colorado,Provo Area Office,Weber Basin Water Conservancy District,NA,-111.5829849243164,41.290189955885644,Weber Basin,NA,SF Ogden River,UT10116,SF Ogden River,1962-1966,NA,5704,https://www.usbr.gov/projects/index.php?id=58
dam_59,Cedar Bluff Dam,Kansas,Great Plains,Nebraska-Kansas Area Office,NA,NA,-99.725,38.7917,PSMBP-Cedar Bluff,NA,NA,KS00019,Smoky Hill River,1949-1951,NA,2198,https://www.usbr.gov/projects/index.php?id=59
dam_60,Chapman Diversion Dam,Colorado,Great Plains,NA,NA,NA,-106.640589,39.3163756,Fryingpan-Arkansas,NA,NA,NA,Chapman Gulch,1965-1971,NA,10045,https://www.usbr.gov/projects/index.php?id=60
dam_63,Cheney Dam,Kansas,Great Plains,Oklahoma-Texas Area Office,NA,NA,-97.793,37.7306,Wichita,NA,Cheney,KS00017,NF of Ninnescah R.,1962-1965,NA,1454,https://www.usbr.gov/projects/index.php?id=63
dam_65,Choke Canyon Dam,Texas,Great Plains,Oklahoma-Texas Area Office,City of Corpus Christi,NA,-98.2458,28.3125,Nueces River,NA,Choke Canyon,TX04415,Frio River,1981-1982,NA,241.14,https://www.usbr.gov/projects/index.php?id=65
dam_68,Clark Canyon Dam,Montana,Great Plains,Montana Area Office,East Bench Irrigation District,"Twenty miles southwest of Dillon, Montana at the head of Beaverhead River in southwestern Montana.",-112.85834312438965,45.000415406254376,"East Bench Unit, Pick-Sloan Missouri Basin Program",Zoned earthfill,Clark Canyon,MT00569,Beaverhead River,1961-1964,Uncontrolled concrete crest and concrete-lined chute at left abutment,5,https://www.usbr.gov/projects/index.php?id=68
dam_306,Cle Elum Dam,Washington,Pacific Northwest,Columbia-Cascades Area Office,NA,NA,-121.073112,47.2469,Yakima,Zoned Earthfill,Cle Elum Lake,WA00274,Cle Elum River,1931-1933,Radial gates,2250,https://www.usbr.gov/projects/index.php?id=306
dam_69,Clear Creek Dam,Washington,Pacific Northwest,Columbia-Cascades Area Office,NA,NA,-121.270915,46.6278934,Yakima,Concrete Gravity,Clear Creek,WA00264,Tieton River,1914-1915,"Rock channel overflow, Overflow spillway",3016,https://www.usbr.gov/projects/index.php?id=69
dam_27,Clear Lake Dam,California,Mid-Pacific,Langell Valley Irrigation District,NA,19 mi SE of Malin OR,-121.075969,41.926115,Klamath,Roller Compacted Concrete Structure,Clear Lake,CA10141,Lost River,1908-1910,NA,4552,https://www.usbr.gov/projects/index.php?id=27
dam_29,Cold Springs Dam,Oregon,Pacific Northwest,Columbia-Cascades Area Office,Hermiston Irrigation District,NA,-119.173679,45.8592328,Umatilla Basin,NA,Cold Springs,OR00590,Off-stream,1908,NA,629.9,https://www.usbr.gov/projects/index.php?id=29
dam_30,Como Dam,Montana,Pacific Northwest,Bitter Root Project Irrigation District,Bitter Root Project Irrigation District,NA,-114.2333,46.0617,Bitter Root,Hydraulic Earthfill,Lake Como,NA,Rock Creek,1908-1910,Ungated,4249,https://www.usbr.gov/projects/index.php?id=30
dam_32,Conconully Dam,Washington,Pacific Northwest,Columbia-Cascades Area Office,Okanogan Irrigation District,NA,-119.7486774,48.5370932,Okanogan,Hydraulic Earthfill,Conconully Reservoir,WA00259,Salmon Creek,1910-1911,Ungated overflow w/ baffled chute,2301,https://www.usbr.gov/projects/index.php?id=32
dam_34,Contra Loma Dam,California,Mid-Pacific,South-Central California Area Office,NA,NA,-121.8231,37.9772,Central Valey,NA,Contra Loma,CA10143,offstream storage,1966-1967,NA,217,https://www.usbr.gov/projects/index.php?id=34
dam_35,Corbett Diversion Dam,Wyoming,Great Plains,Big Horn Basin Field Office,Sidon Irrigation District,NA,-108.95428,44.58953,Shoshone,NA,NA,NA,Shoshone River,1908,NA,4625,https://www.usbr.gov/projects/index.php?id=35
dam_38,Crane Prairie Dam,Oregon,Pacific Northwest,Columbia-Cascades Area Office,Central Oregon Irrigation District,NA,-121.785,43.755,Deschutes,Zoned Earthfill,Crane Prairie,OR00279,Deschutes River,1939-1940,Ungated rock channel,4455,https://www.usbr.gov/projects/index.php?id=38
dam_39,Crawford Dam,Colorado,Upper Colorado,Western Colorado Area Office,Crawford Water Conservancy District,NA,-107.6081657409668,38.69073544820042,Smith Fork,NA,Crawford,CO00556,Iron Creek,1960-1962,NA,6578,https://www.usbr.gov/projects/index.php?id=39
dam_41,Crystal Dam,Colorado,Upper Colorado,Power Office,NA,NA,-107.33505249023438,38.453588708941375,Colorado River Storage,NA,Crystal,CO00387,Gunnison River,1972-1977,NA,6772,https://www.usbr.gov/projects/index.php?id=41
dam_277,Culbertson Diversion Dam,Nebraska,Great Plains,NA,NA,NA,-101.10267,40.36186,PSMBP-Frenchman-Cambridge,NA,NA,NA,Frenchman,1959,NA,2744,https://www.usbr.gov/projects/index.php?id=277
dam_44,Currant Creek Dam,Utah,Upper Colorado,Provo Area Office,Central Utah Water Conservancy District,NA,-111.05186462402344,40.33215123550075,CUP - Bonneville Unit,NA,Currant Creek,UT10149,Currant Creek,1974-1975,NA,7692,https://www.usbr.gov/projects/index.php?id=44
dam_70,Davis Creek Dam,Nebraska,Great Plains,Nebraska-Kansas Area Office,Twin Loups Irrigation District,NA,-98.74793,41.41568,PSMBP-North Loup,NA,Davis Creek,NE82901,Tributary to Davis Creek,1988-1990,NA,2094,https://www.usbr.gov/projects/index.php?id=70
dam_47,Davis Dam,Arizona and Nevada,Lower Colorado,Lower Colorado Dams Office,Lower Colorado Dams Office,"2 mi north of Bullhead City, AZ and Laughlin, NV",-114.5683,35.1967,Parker-Davis,Zoned earthfill,Lake Mohave,AZ10309,Colorado River,1942-1950,Concrete ogee weir,655,https://www.usbr.gov/projects/index.php?id=47
dam_11,Deadwood Dam,Idaho,Pacific Northwest,Snake River Area Office,NA,"25 mi SE of Cascade, ID",-115.6459458,44.2932322,Boise,Concrete Arch,Deadwood,ID00284,Deadwood River,1929-1931,Uncontrolled overflow section near center of the dam,5340,https://www.usbr.gov/projects/index.php?id=11
dam_75,Deaver Dam,Wyoming,Great Plains,Big Horn Basin Field Office,Deaver Irrigation District,NA,-108.63707,44.901,Shoshone,NA,Deaver,WY01379,Offstream,1918,NA,4309,https://www.usbr.gov/projects/index.php?id=75
dam_76,Deer Creek Dam,Utah,Upper Colorado,Provo Area Office,Provo River Water Users Association,NA,-111.527,40.406667,Provo River,NA,Deer Creek,UT10117,Provo River,1938 - 1941,NA,5425,https://www.usbr.gov/projects/index.php?id=76
dam_13,Deer Flat Lower Embankment,Idaho,Pacific Northwest,Snake River Area Office,Boise Project Board of Control,27 mi SW of Boise,-116.73703,43.58247,Boise,Earthfill,Lake Lowell,ID00278,Offstream Storage,1906-1908,NA,2539,https://www.usbr.gov/projects/index.php?id=13
dam_14,Deer Flat Middle Embankment,Idaho,Pacific Northwest,Snake River Area Office,Boise Project Board of Control,26 mi SW of Boise,-116.7178916,43.595746,Boise,Earthfill,Lake Lowell,ID00277,Offstream Storage,1906-1911,NA,2536,https://www.usbr.gov/projects/index.php?id=14
dam_15,Deer Flat Upper Embankment,Idaho,Pacific Northwest,Snake River Area Office,Boise Project Board of Control,23 mi SW of Boise,-116.6543,43.56007,Boise,Earthfill,Lake Lowell,ID00276,Offstream Storage,1906-1908,NA,2538.4,https://www.usbr.gov/projects/index.php?id=15
dam_100,Deerfield Dam,South Dakota,Great Plains,Dakotas Area Office,NA,NA,-103.7867,44.03,Rapid Valley,NA,Deerfield,SD01138,Castle Creek,1942-1947,NA,5958,https://www.usbr.gov/projects/index.php?id=100
dam_77,Derby Diversion Dam,Nevada,Mid-Pacific,Lahontan Basin Area Office,NA,NA,NA,NA,Newlands,NA,NA,NV10121,Truckee Rier,1905,NA,4219.16,https://www.usbr.gov/projects/index.php?id=77
dam_78,Dickinson Dam,North Dakota,Great Plains,Dakotas Area Office,NA,NA,-102.8269,46.8697,PSMBP-Dickinson,NA,NA,ND00148,Heart River,1950,NA,2436.6,https://www.usbr.gov/projects/index.php?id=78
dam_61,Dille Diversion Dam,Colorado,Great Plains,Eastern Colorado Area Office,NA,NA,-105.14096,40.4041,Colorado-Big Thompson,NA,NA,NA,Big Thompson River,1950,NA,5500,https://www.usbr.gov/projects/index.php?id=61
dam_79,Dixon Canyon Dam,Colorado,Great Plains,Eastern Colorado Area Office,Northern Colorado Water Conservancy District,NA,-105.14,40.5533,Colorado-Big Thompson,NA,Horsetooth,CO01653,Offstream Storage,1946-1949,NA,5443,https://www.usbr.gov/projects/index.php?id=79
dam_80,Dodson Diversion Dam,Montana,Great Plains,Montana Area Office,Malta Irrigation District,"On the Milk River 5 miles west of Dodson, Montana.",-108.3077,48.4121,Milk River,"Concrete capped timber-crib weir, movable crest, embankment wings",NA,MT00583,Milk River,1910,Movable overflow crest,2,https://www.usbr.gov/projects/index.php?id=80
dam_81,Dressler Diversion Dam,Nevada,Mid-Pacific,Lahontan Basin Area Office,NA,NA,NA,NA,Washoe,NA,NA,NA,NA,NA,NA,NA,https://www.usbr.gov/projects/index.php?id=81
dam_82,Dry Creek Diversion Dam,Colorado,Upper Colorado,NA,NA,NA,NA,NA,Fruitgrowers,NA,NA,NA,Dry Creek,1940,NA,5619.5,https://www.usbr.gov/projects/index.php?id=82
dam_84,Dry Falls Dam,Washington,Pacific Northwest,Columbia-Cascades Area Office,NA,NA,-119.31787,47.622595,Columbia Basin,Zoned Earthfill,Banks Lake,WA00261,Offstream Storage,1946-1949,NA,1580,https://www.usbr.gov/projects/index.php?id=84
dam_285,Dry Spotted Tail Diversion Dam,Nebraska,Great Plains,NA,NA,NA,-103.92492,41.93825,North Platte,NA,NA,NA,Dry Spotted Tail Creek,1954,NA,3996,https://www.usbr.gov/projects/index.php?id=285
dam_286,Dunlap Diversion Dam,Nebraska,Great Plains,NA,NA,NA,-102.92388,42.46225,Mirage Flats,NA,NA,NA,Niobrara,1945,NA,3873.3,https://www.usbr.gov/projects/index.php?id=286
dam_88,East Canyon Dam,Utah,Upper Colorado,Provo Area Office,NA,NA,-111.60085916519165,40.920533533014265,Weber Basin,NA,East Canyon,UT10119,East Canyon Creek,1964-1966,NA,5715,https://www.usbr.gov/projects/index.php?id=88
dam_89,East Park Dam,California,Mid-Pacific,Northern California Area Office,Orland Unit Water Users` Association,NA,-122.515,39.3567,Orland,NA,NA,CA10145,Little Stony Creek,1908-1910,NA,1198.68,https://www.usbr.gov/projects/index.php?id=89
dam_287,East Portal Diversion Dam,Colorado,Great Plains,Eastern Colorado Area Office,NA,NA,-105.57857,40.32788,Colorado-Big Thompson,NA,NA,NA,Wind River,1947,NA,8265,https://www.usbr.gov/projects/index.php?id=287
dam_103,Easton Diversion Dam,Washington,Pacific Northwest,Columbia-Cascades Area Office,Kittitas Reclamation District,NA,-121.1880397,47.24154,Yakima,Concrete Gravity,Lake Easton,WA00279,Yakima River,1928-1929,Overflow Drum Gate,2184.5,https://www.usbr.gov/projects/index.php?id=103
dam_92,Echo Dam,Utah,Upper Colorado,Provo Area Office,Weber River Water Users Association,NA,-111.4319658279419,40.96486345371011,Weber Basin,NA,Echo,UT10120,Weber Basin,1927-1931,NA,5570,https://www.usbr.gov/projects/index.php?id=92
dam_93,Eden Dam,Wyoming,Upper Colorado,Provo Area Office,Eden Valley Irrigation and Drainage District,NA,-109.3665361404419,42.218125247841755,Eden,NA,Eden  Reservoir,WY01388,OS Little Sandy Creek,"1910, rehabilitated in1959",NA,6720,https://www.usbr.gov/projects/index.php?id=93
dam_96,El Vado Dam,New Mexico,Upper Colorado,Albuquerque Area Office,NA,NA,-106.7325210571289,36.594030173904585,Middle Rio Grande,NA,El Vado,NM10008,Rio chama,1933-1935,NA,6914.5,https://www.usbr.gov/projects/index.php?id=96
dam_94,Elephant Butte Dam,New Mexico,Upper Colorado,Albuquerque Area Office,NA,NA,-107.19117879867554,33.15348719243569,Rio Grande,NA,Elephant Butte,NM00129,Rio Grande,1912-1916,NA,4414,https://www.usbr.gov/projects/index.php?id=94
dam_97,Emigrant Dam,Oregon,Pacific Northwest,Columbia-Cascades Area Office,Talent Irrigation District,NA,-122.605233,42.16206,Rogue River Basin,Zoned Earthfill,Emigrant Lake,NA,Emigrant Creek,1924,Ungated overflow,2254,https://www.usbr.gov/projects/index.php?id=97
dam_99,Enders Dam,Nebraska,Great Plains,Nebraska-Kansas Area Office,NA,1.5 mi from Enders,-101.5175,40.4208,PSMBP-Frenchman-Cambridge,NA,Enders,NE01070,Frenchman River,1947-1951,NA,3137.5,https://www.usbr.gov/projects/index.php?id=99
dam_104,Fish Lake Dam,Oregon,Pacific Northwest,Medford Irrigation District,Medford Irrigation District,"35 miles northeast of Medford, Oregon",-122.348,42.3781,Rogue River Basin,Zoned Earthfill with Rockfill,Fish Lake,OR00021,North Fork Little Butte Creek,1902-1908,NA,4649,https://www.usbr.gov/projects/index.php?id=104
dam_105,Flaming Gorge Dam,Utah,Upper Colorado,Power Office,Flaming Gorge Field Division,NA,-109.42193448543549,40.91499222778669,Colorado River Storage,NA,Flaming Gorge,UT10121,Green River,1958-1964,NA,6047,https://www.usbr.gov/projects/index.php?id=105
dam_72,Flatiron Afterbay Dam,Colorado,Great Plains,Eastern Colorado Area Office,NA,NA,-105.2233,40.3683,Colorado-Big Thompson,NA,Flatiron,CO01654,Chimney Hollow Creek,1951-1953,NA,5486,https://www.usbr.gov/projects/index.php?id=72
dam_74,Folsom Dam,California,Mid-Pacific,Central California Area Office,NA,NA,-121.1528,38.7083,CVP-Auburn-Folsom,NA,NA,CA10148,American River,1948-1956,NA,480.5,https://www.usbr.gov/projects/index.php?id=74
dam_288,Fontenelle Dam,Wyoming,Upper Colorado,Provo Area Office,NA,NA,-110.0606,42.0283,Seedskadee,NA,Fontenelle,WY01389,Green River,1961-1964,NA,6519,https://www.usbr.gov/projects/index.php?id=288
dam_289,Fort Cobb Dam,Oklahoma,Great Plains,Oklahoma-Texas Area Office,Fort Cobb Reservoir Master Conservancy District,NA,-98.45,35.1667,Washita Basin,NA,Fort Cobb,OK02502,Cobb Creek,1958-1959,NA,1380,https://www.usbr.gov/projects/index.php?id=289
dam_117,Fort Shaw Diversion Dam and Canal,Montana,Great Plains,Montana Area Office,NA,"On the Sun River, 12 miles upstream of Fort Shaw, Montana, 40 miles downstream from Sun River Diversion Dam.",-111.7661,47.5309,Sun River,Rockfill overflow section,NA,NA,Sun River,1908,NA,NA,https://www.usbr.gov/projects/index.php?id=117
dam_121,Foss Dam,Oklahoma,Great Plains,Oklahoma-Texas Area Office,Foss Reservoir Master Conservancy District,NA,-99.1833,35.55,Washita basin,NA,Foss,OK02503,Washita River,1958-1961,NA,1697,https://www.usbr.gov/projects/index.php?id=121
dam_127,French Canyon Dam,Washington,Pacific Northwest,Columbia-Cascades Area Office,Yakima-Tieton Irrigation District,NA,-120.7922959,46.7114132,Yakima,Zoned Earthfill,French Canyon,WA82901,Cowiche Creek,1983-1985,Ungated,2170,https://www.usbr.gov/projects/index.php?id=127
dam_128,Fresno Dam,Montana,Great Plains,Montana Area Office,NA,"Fourteen miles west of Havre, Montana",-109.9456,48.6019,Milk River,Homogeneous earthfill,Fresno,NA,Milk River,1937-1939,Uncontrolled Crest,2,https://www.usbr.gov/projects/index.php?id=128
dam_133,Friant Dam,California,Mid-Pacific,South-Central California Area Office,NA,NA,NA,NA,CVP-Friant,NA,Millerton Lake,CA10154,San Joaquin River,1939-1942,NA,581.25,https://www.usbr.gov/projects/index.php?id=133
dam_138,Fruitgrowers Dam,Colorado,Upper Colorado,Western Colorado Area Office -Grand Junction,Orchard City Irrigation District,NA,-107.9545783996582,38.826669923445486,Fruitgrowers,NA,Fruitgrowers,CO01683,Alfalfa Run,1938-1939,NA,5493,https://www.usbr.gov/projects/index.php?id=138
dam_296,Fryingpan Diversion Dam,Colorado,Great Plains,NA,NA,"9 mi S of Norrie, CO",-106.3146,39.14447,Fryingpan-Arkansas,NA,NA,NA,Fryingpan River,1965-1971,NA,9961.9,https://www.usbr.gov/projects/index.php?id=296
dam_139,Funks Dam,California,Mid-Pacific,Northern California Area Office,Tehama-Colusa Canal Authority,NA,NA,NA,CVP-Sacramento Canals,NA,Funks Reservoir,CA10245,Funks Creek,19-1976,NA,NA,https://www.usbr.gov/projects/index.php?id=139
dam_283,Garnet Diversion Dam,Colorado,Upper Colorado,NA,NA,"15 mi NW of Montrose, CO",NA,NA,Uncompahgre,NA,1914,NA,Uncompahgre River,NA,NA,5170,https://www.usbr.gov/projects/index.php?id=283
dam_73,Gerber Dam,Oregon,Mid-Pacific,NA,NA,33 SE of Klamath Falls OR,-121.1283,42.2017,Klamath,NA,Gerber,OR00584,Miller Crek,1924-1925,NA,4841.9,https://www.usbr.gov/projects/index.php?id=73
dam_284,Gibson Dam,Montana,Great Plains,Montana Area Office,Greenfields Irrigation District,"On the North Fork of Sun River about 24 miles northwest of Augusta, Montana.",-112.7614,47.6013,Sun River,Concrete arch,Gibson,MT00571,North Fork of Sun River,1926-1929,"Drop-inlet, discharging into shaft and tunnel in left abutment, controlled by 6 34- by 12 - ft radio gates.",4,https://www.usbr.gov/projects/index.php?id=284
dam_16,Glen Anne Dam,California,Mid-Pacific,South-Central California Area Office,Goleta Water District,10 mi NW of Santa Barbara,-119.9125,34.4708,Cachuma,NA,Glen Anne,CA10156,WE of Glen Anne Canyon,1950-1953,NA,402,https://www.usbr.gov/projects/index.php?id=16
dam_144,Glen Canyon Dam,Arizona,Upper Colorado,Power Office,Glen Canyon Dam Field Division,NA,-111.4837646484375,36.93754412114758,Colorado River Storage,NA,Lake Powell,AZ10307,Colorado River Storage,1956-1966,NA,3715,https://www.usbr.gov/projects/index.php?id=144
dam_149,Glen Elder Dam,Kansas,Great Plains,Nebraska-Kansas Area Office,NA,NA,-98.3133,39.4967,PSMBP - Glen Elder,NA,Waconda Lake,KS00021,Solomon River,1963-1969,NA,1500,https://www.usbr.gov/projects/index.php?id=149
dam_290,Glendo Dam,Wyoming,Great Plains,Wyoming Area Office,NA,NA,-104.9833,42.4833,PSMBP-Glendo Unit,NA,Glendo,WY01291,North Platte River,1955-1958,NA,4675,https://www.usbr.gov/projects/index.php?id=290
dam_291,Granby Dam,Colorado,Great Plains,Eastern Colorado Area Office,Northern Colorado Water Conservancy District,NA,-105.8633,40.165,Colorado-Big Thompson,NA,Lake Granby,CO01656,Colorado River,1941-1950,NA,8290,https://www.usbr.gov/projects/index.php?id=291
dam_155,Grand Coulee Dam,Washington,Pacific Northwest,Grand Coulee Power Office,Grand Coulee Power Office,NA,-118.9833,47.955,Columbia Basin,Concrete Gravity,Franklin D. Roosevelt Lake,WA00262,Columbia River,1933-1941,Drum gates,1311.1,https://www.usbr.gov/projects/index.php?id=155
dam_161,Granite Creek Diversion Dam,Colorado,Great Plains,NA,NA,NA,-106.33482,39.15397,Fryingpan-Arkansas,NA,NA,NA,NA,NA,NA,NA,https://www.usbr.gov/projects/index.php?id=161
dam_165,Granite Reef Diversion Dam,Arizona,Lower Colorado,Phoenix Area Office,Area Office Manager,"22 miles east of Phoenix, Arizona",-111.69228,33.513233,Salt River,Concrete ogee weir,NA,AZ10316,Salt River,1906-1908,NA,1310,https://www.usbr.gov/projects/index.php?id=165
dam_166,Grassy Lake Dam,Wyoming,Pacific Northwest,Upper Snake Field Office,Fremont-Madison Irrigation District,NA,-110.8183,44.13,Minidoka,Zoned Earthfill,Grassy Creek,WY01384,Grassy Creek,1937-1939,Ungated bathtub,7218,https://www.usbr.gov/projects/index.php?id=166
dam_292,Gray Reef Dam,Wyoming,Great Plains,Wyoming Area Office,NA,NA,-106.7017,42.56529,PSMBP-Glendo Unit,NA,Gray Reef,WY01292,North Platte River,1959-1961,NA,5338,https://www.usbr.gov/projects/index.php?id=292
dam_174,Green Mountain Dam,Colorado,Great Plains,Eastern Colorado Area Office,NA,NA,-106.33,39.8783,Colorado-Big Thompson,NA,Green Mountain,CO01658,Blue River,1938-1943,NA,7960,https://www.usbr.gov/projects/index.php?id=174
dam_175,Guernsey Dam,Wyoming,Great Plains,Wyoming Area Office,NA,NA,-104.7631,42.2903,North Platte,NA,Guernsey,WY01293,North Platte River,1925-1927,NA,4430,https://www.usbr.gov/projects/index.php?id=175
dam_179,Halfmoon Diversion Dam,Colorado,Great Plains,NA,NA,"9 mi SW of Leadville, CO",-106.38352,39.18573,Fryingpan-Arkansas,NA,NA,NA,Halfmoon Creek,1977,NA,9715.5,https://www.usbr.gov/projects/index.php?id=179
dam_182,Hanover Diversion Dam,Wyoming,Great Plains,Big Horn Basin Field Office,NA,NA,-108.00087,43.95874,PSMBP-Hanover-Bluff,NA,NA,NA,Bighorn river,1910,NA,4190.75,https://www.usbr.gov/projects/index.php?id=182
dam_183,Haystack Dam,Oregon,Pacific Northwest,Columbia-Cascades Area Office,North Unit Irrigation District,NA,-121.15525,44.4991378,Deschutes,Zoned Earthfill,Haystack,OR00287,Off stream - unnamed internittent creek,1956-1957,NA,2853,https://www.usbr.gov/projects/index.php?id=183
dam_112,Heart Butte Dam,North Dakota,Great Plains,Dakotas Area Office,NA,NA,-101.8167,46.5967,PSMBP-Heart Butte,NA,NA,NA,Heart River,1948-1949,NA,2124,https://www.usbr.gov/projects/index.php?id=112
dam_113,Helena Valley Dam,Montana,Great Plains,Montana Area Office,Helena Valley Irrigation District,"Approximately 8 miles northeast of Helena, Montana  and 3.5 miles west of Canyon Ferry Dam.",-111.883233,46.64182,"Helena Valley Unit, Pick-Sloan Missouri Basin Program",Zoned earthfill,Helena Valley,MT00743,Tenmile Creek Tributary,1957-1958,NA,3,https://www.usbr.gov/projects/index.php?id=113
dam_118,Heron Dam,New Mexico,Upper Colorado,Albuquerque Area Office,NA,NA,-106.70548439025879,36.66573390859443,San Juan-Chama,NA,Heron,NM00121,Willow Creek,1967-1971,NA,7199,https://www.usbr.gov/projects/index.php?id=118
dam_122,Hoover Dam,Nevada and Arizona,Lower Colorado,Lower Colorado Dams Office,Lower Colorado Dams Office,"35 miles southeast of Las Vegas, Nevada",-114.7372,36.0163,Boulder Canyon,Concrete thick arch,Lake Mead,NV10122,Colorado River,1931-1936,"Concrete lined, side channel, gate controlled overflow weir",1232,https://www.usbr.gov/projects/index.php?id=122
dam_123,Horse Creek Diversion Dam,Wyoming,Great Plains,North Platte Projects Field Office,NA,"12 Miles SE of Torrington, WY",-104.060008,41.98356,North Platte,NA,NA,NA,Horse Creek,1923,NA,4122,https://www.usbr.gov/projects/index.php?id=123
dam_129,Horse Mesa Dam,Arizona,Lower Colorado,Phoenix Area Office,Area Office Manager,"On the Salt River, 65 miles northeast of Phoenix",-111.3438,33.5908,Salt River,Concrete thin arch,Apache Lake,AZ10311,Salt River,1924-1927,Concrete overall structures,1915,https://www.usbr.gov/projects/index.php?id=129
dam_134,Horseshoe Dam,Arizona,Lower Colorado,Phoenix Area Office,Area Office Manager,"58 miles northeast of Phoenix, AZ",-111.708939,33.9834,Salt River,Zoned Rockfill Embankment,Horseshoe,AZ10310,Verde River,1944-1946,Gate concrete ogee crest,2052,https://www.usbr.gov/projects/index.php?id=134
dam_119,Horsetooth Dam,Colorado,Great Plains,Eastern Colorado Area Office,Northern Colorado Water Conservancy District,NA,-105.1683,40.6,Colorado-Big Thompson,NA,Horsetooth,CO01659,Offstream Storage,1946-1949,NA,5443,https://www.usbr.gov/projects/index.php?id=119
dam_124,Howard Prairie Dam,Oregon,Pacific Northwest,Columbia-Cascades Area Office,Talent Irrigation District,NA,-122.377,42.2168,Rogue River Basin,Zoned Earthfill,Howard Prairie Lake,OR00580,Jenny Creek,1957-1958,Ungated overflow,4539,https://www.usbr.gov/projects/index.php?id=124
dam_17,Hubbard Dam,Idaho,Pacific Northwest,Boise Project Board of Control,NA,12 SW of Boise,-116.3594,43.5123,Boise,NA,Hubbard,ID00376,Offstream Storage,1902,NA,2780,https://www.usbr.gov/projects/index.php?id=17
dam_255,Hungry Horse Dam,Montana,Pacific Northwest,Grand Coulee Power Office,Grand Coulee Power Office,"9 miles SE of Columbia Falls, Montana",-114.013023376,48.3413,Hungry Horse,Concrete Thick Arch,Hungry Horse,MT00565,South Fork of Flathead River,1948-1953,Gated Morning Glory,3548,https://www.usbr.gov/projects/index.php?id=255
dam_293,Hunter Creek Diversion Dam,Colorado,Great Plains,NA,NA,7.5 mi E of Aspen CO,-106.4046,39.1226,Fryingpan-Arkansas,NA,NA,NA,Hunter Creek,1976,NA,10179,https://www.usbr.gov/projects/index.php?id=293
dam_140,Huntington North Dam,Utah,Upper Colorado,Provo Area Office,Emery Water Conservancy District,NA,-110.94749450683594,39.34173234304089,Emery County,NA,Huntington North,UT10122,Huntington Creek,1964-1966,NA,5845,https://www.usbr.gov/projects/index.php?id=140
dam_141,Hyatt Dam,Oregon,Pacific Northwest,Columbia-Cascades Area Office,Talent Irrigation District,NA,-122.46829,42.171737,Rogue River Basin,Earth and Rockfill,Hyatt Dam,OR10013,Keene Creek,1922-1923,Ungated overflow,5025,https://www.usbr.gov/projects/index.php?id=141
dam_145,Hyrum Dam,Utah,Upper Colorado,Provo Area Office,Hyrum-South Cache Water Users Association,NA,-111.8717086315155,41.626630764865375,Hyrum,NA,Hyrum,UT10123,Little Bear Water,1934-1935,NA,4680,https://www.usbr.gov/projects/index.php?id=145
dam_150,Imperial Diversion Dam,California and Arizona,Lower Colorado,Yuma Area Office,Imperial Irrigation District,"On the Colorado River, 18 miles northeast of Yuma, Arizona",-114.4669,32.8831,Boulder Canyon,"Concrete slab and buttress, ogee weir",NA,CA10159,Colorado River,1936-1938,Overflow ogee weir,196.25,https://www.usbr.gov/projects/index.php?id=150
dam_151,Island Park Dam,Idaho,Pacific Northwest,Upper Snake Field Office,Fremont-Madison Irrigation District,NA,-111.396324,44.4188389,Minidoka,Zoned Earthfill,Island Park,ID00272,Henrys Fork,1937-1939,Bathtub spillway with a 1 ft inflatable bladder on top,6312,https://www.usbr.gov/projects/index.php?id=151
dam_130,Isleta Diversion Dam,New Mexico,Upper Colorado,Middle Rio Grande Conservancy District,Middle Rio Grande Conservancy District,NA,NA,NA,Middle Rio Grande,concrete gate structure,NA,NA,Rio Grande,1934 and rehabilitated in 1955,NA,4886.6,https://www.usbr.gov/projects/index.php?id=130
dam_131,Ivanhoe Diversion Dam,Colorado,Great Plains,NA,NA,"7 mi E of Norrie, CO",-106.33309,39.17139,Fryingpan-Arkansas,NA,NA,NA,Ivanhoe Creek,1973-1976,NA,10015.25,https://www.usbr.gov/projects/index.php?id=131
dam_156,Jackson Gulch Dam,Colorado,Upper Colorado,Western Colorado Area Office - Durango,Mancos Water Conservancy District,NA,-108.2740831375122,37.39845994620459,Mancos,NA,Jackson Gulch,CO01685,Offstream,1942-1949,NA,7831,https://www.usbr.gov/projects/index.php?id=156
dam_162,Jackson Lake Dam,Wyoming,Pacific Northwest,Upper Snake Field Office,Upper Snake Field Office,NA,-110.5899305,43.8574396,Minidoka,Concrete gravity / zoned embankment,Jackson Lake,WY01385,Snake River,1912,gated,6774.5,https://www.usbr.gov/projects/index.php?id=162
dam_157,James Diversion Dam,South Dakota,Great Plains,Dakotas Area Office,NA,NA,-98.23891,44.59737,PSMBP-James Diversion Dam,NA,NA,SD01143,James River,1963-1964,NA,NA,https://www.usbr.gov/projects/index.php?id=157
dam_167,Jamestown Dam,North Dakota,Great Plains,Dakotas Area Office,NA,NA,-98.71,46.9333,PSMBP-Jamestown,NA,Jamestown,ND00151,James River,1952-1954,NA,1471,https://www.usbr.gov/projects/index.php?id=167
dam_168,Joes Valley Dam,Utah,Upper Colorado,Provo Area Office,Emery Water Conservancy District,NA,-111.26935958862305,39.288475613983,Emery County,NA,Joes Valley,UT10124,Seely Creek,1963-1966,NA,7004,https://www.usbr.gov/projects/index.php?id=168
dam_171,John Franchi Diversion Dam,California,Mid-Pacific,NA,NA,NA,NA,NA,NA,NA,NA,NA,NA,NA,NA,NA,https://www.usbr.gov/projects/index.php?id=171
dam_176,Jordanelle Dam,Utah,Upper Colorado,Provo Area Office,Central Utah Water Conservancy District,NA,-111.52813911437988,40.407287489365885,CUP - Bonneville Unit,NA,Jordanelle,UT82912,Provo,1987-1992,NA,6185,https://www.usbr.gov/projects/index.php?id=176
dam_135,Kachess Dam,Washington,Pacific Northwest,Columbia-Cascades Area Office,NA,NA,-121.20254,47.2646,Yakima,Zoned Earthfill,Kachess Lake,WA00260,Kachess River,1910-1912,Radial Gate,2268,https://www.usbr.gov/projects/index.php?id=135
dam_294,Keechelus Dam,Washington,Pacific Northwest,Columbia-Cascades Area Office,NA,NA,-121.34056,47.32212,Yakima,Zoned Earthfill,Keechelus Lake,WA00265,Yakima River,1913-1917,Ungated,2525,https://www.usbr.gov/projects/index.php?id=294
dam_295,Keene Creek Dam,Oregon,Pacific Northwest,Columbia-Cascades Area Office,Talent Irrigation District,NA,-122.478911,42.129277,Rogue River Basin,Zoned Earthfill,Keene Creek,NA,Keene Creek,1957-1959,Ungated,4412.5,https://www.usbr.gov/projects/index.php?id=295
dam_184,Kent Diversion Dam,Nebraska,Great Plains,NA,NA,NA,-99.2678,41.76136,PSMBP-North Loup,NA,NA,NA,North Loup,1076,NA,2213,https://www.usbr.gov/projects/index.php?id=184
dam_185,Keswick Dam,California,Mid-Pacific,Northern California Area Office,NA,NA,-122.4528,40.615,CVP-Shasta/Trinity,NA,Keswick,CA10160,Sacramento river,1941-1950,NA,595.5,https://www.usbr.gov/projects/index.php?id=185
dam_107,Keyhole Dam,Wyoming,Great Plains,Dakotas Area Office,NA,NA,-104.7792,44.3819,PSMBP-Keyhole,NA,Keyhole,NA,Offstream,1950-1952,NA,4134,https://www.usbr.gov/projects/index.php?id=107
dam_108,Kirwin Dam,Kansas,Great Plains,Nebraska-Kansas Area Office,Kirwin Irrigation District No 1,NA,-99.1222,39.65,PSMBP-Kirwin,NA,Kirwin,KS00022,NF Solomon Rivr,1952-1955,NA,1779,https://www.usbr.gov/projects/index.php?id=108
dam_114,Kortes Dam,Wyoming,Great Plains,Wyoming Area Office,NA,NA,-106.881002,42.17392,PSMBP-Kortes,NA,Kortes,WY01294,North Platte River,1946-1951,NA,6169,https://www.usbr.gov/projects/index.php?id=114
dam_297,Laguna Diversion Dam,Arizona and California,Lower Colorado,Yuma Area Office,Imperial Irrigation District,"On the Colorado River, 13 miles northeast of Yuma, Arizona",-114.4972,32.8233,Yuma,"Rockfill weir, concrete surfaced",NA,AZ10315,Colorado River,1905,NA,151,https://www.usbr.gov/projects/index.php?id=297
dam_142,Lahontan Dam,Nevada,Mid-Pacific,Lahontan Basin Area Office,Truckee-Carson Irrigation District,NA,NA,NA,Newlands,NA,Lahontan,NV10123,Carson River,1911-1915,NA,4174,https://www.usbr.gov/projects/index.php?id=142
dam_146,Lake Alice No 1 Dam,Nebraska,Great Plains,Pathfinder Irrigation District,NA,NA,-103.6286,41.9728,North Platte,NA,Lake Alice,NE01071,Interstate Canal,1910-1912,NA,4192,https://www.usbr.gov/projects/index.php?id=146
dam_298,Lake Alice No 1and 1 Half Dam,Nebraska,Great Plains,Pathfinder Irrigation District,NA,NA,-103.597,41.9828,North Platte,NA,Lake Alice,NE01072,Interstate Canal,1910-1911,NA,4192,https://www.usbr.gov/projects/index.php?id=298
dam_152,Lake Alice No 2 Dam,Nebraska,Great Plains,Pathfinder Irrigation District,NA,NA,-103.57258,41.9623003,North Platte,NA,Little Lake Alice,NE82903,Lake Alice Feeder Canal,1908-1909,NA,4139.5,https://www.usbr.gov/projects/index.php?id=152
dam_158,Lake Sherburne Dam,Montana,Great Plains,Montana Area Office,NA,"On Swiftcurrent Creek in Glacier National Park, about 6 miles west of Babb, Montana.",-113.5213,48.8285,Milk River,Homogeneous earthfill,Lake Sherburne,MT00572,Swiftcurrent Creek,1914-1921,Overflow crest (Morning-Glory type),4,https://www.usbr.gov/projects/index.php?id=158
dam_159,Lake Tahoe Dam,California,Mid-Pacific,Lahontan Basin Area Office,Bureau of Reclamation,NA,NA,NA,Newlands,NA,Lake Tahoe,CA10162,Truckee River,1909-1913,NA,6233.2,https://www.usbr.gov/projects/index.php?id=159
dam_18,Lauro Dam,California,Mid-Pacific,South-Central California Area Office,Cachuma Operations and Maintenance Board,Near town of Carpinteria,-119.7264,34.4542,Cachuma,NA,Lauro,CA10164,Diablo Creek,1951-1952,NA,567,https://www.usbr.gov/projects/index.php?id=18
dam_163,Lemon Dam,Colorado,Upper Colorado,Western Colorado Area Office- Durango,Florida Water Conservancy District,NA,-107.66070485115051,37.38170975228258,Florida,NA,Lemon,CO01688,Florida River,1961-1963,NA,8167,https://www.usbr.gov/projects/index.php?id=163
dam_169,Lewiston Dam,California,Mid-Pacific,Northern California Area Office,NA,NA,NA,NA,CVP-Shasta/Trinity,NA,Lewiston Lake,CA10165,Trinity River,1960-1963,NA,1910,https://www.usbr.gov/projects/index.php?id=169
dam_170,Lily Pad Diversion Inlet Dam,Colorado,Great Plains,NA,NA,"9.5 mi SE of Norrie, CO",-106.32115,39.15299,Fryingpan-Arkansas,NA,NA,NA,Ivanhoe Cr (Nast Tunnel),1970-1973,NA,10207,https://www.usbr.gov/projects/index.php?id=170
dam_172,Link River Diversion Dam,Oregon,Mid-Pacific,Pacific Power and Light Company (PacificCorp),NA,"Just west of Klamath Falls, OR",-121.7933,42.2233,Klamath,NA,Upper Klamath Lake,OR00557,Link River,1920-1921,NA,4145,https://www.usbr.gov/projects/index.php?id=172
dam_278,Little Hell Creek Diversion Dam,Colorado,Great Plains,Eastern Colorado Area Office,NA,NA,-105.32461,40.3636,Colorado-Big thompson,NA,NA,CO82913,Little Hell Creek,1952,NA,6640,https://www.usbr.gov/projects/index.php?id=278
dam_279,Little Panoche Detention Dam,California,Mid-Pacific,South-Central California Area Office,California Department of Water Resources,NA,NA,NA,Central Valley,NA,Little Panoche,CA10166,Little Panoche Creek,1965-1966,NA,676,https://www.usbr.gov/projects/index.php?id=279
dam_180,Little Wood River Dam,Idaho,Pacific Northwest,Upper Snake Field Office,Little Wood River Irrigation District,11 mi NW of Carey,-114.0292001,43.4249051,Little Wood River,Zoned Earthfill,Little Wood River,ID00041,Little Wood River,1936-1939,ungated,5249,https://www.usbr.gov/projects/index.php?id=180
dam_280,Los Banos Creek Detention Dam,California,Mid-Pacific,South-Central California Area Office,California Department of Water Resources,NA,-120.0317,36.99,Central Valley,NA,Los Banos,CA10167,Los Banos Creek,1964-1965,NA,384,https://www.usbr.gov/projects/index.php?id=280
dam_109,Lost Creek Dam,Utah,Upper Colorado,Provo Area Office,Weber Basin Water Conservancy District,NA,-111.39918923377991,41.184169080205045,Weber Basin,NA,Lost Creek,UT10125,Lost Creek,1963-1966,NA,6022,https://www.usbr.gov/projects/index.php?id=109
dam_115,Lost River Diversion Dam,Oregon,Mid-Pacific,NA,NA,"4 mi below Olene, OR",NA,NA,Klamath,NA,NA,OR00586,Lost River,1912,NA,4094.5,https://www.usbr.gov/projects/index.php?id=115
dam_116,Lovewell Dam,Kansas,Great Plains,Nebraska-Kansas Area Office,NA,NA,-98.0283,39.885,PSMBP-Bostwick,NA,Lovewell,KS00023,White Rock Creek,1955-1957,NA,1616,https://www.usbr.gov/projects/index.php?id=116
dam_120,Lower Yellowstone Diversion Dam,Montana,Great Plains,Montana Area Office,Lower Yellowstone Irrigation District No. 1,"18 miles north of Glendive, Montana",-104.5294,47.2801,Lower Yellowstone,"Diversion: rock filled timber-crib weir, embankment wing",None,NA,Yellowstone,1910,Ogee,1,https://www.usbr.gov/projects/index.php?id=120
dam_125,Malone Diversion Dam,Oregon,Mid-Pacific,NA,NA,11 mi d/s of Clear Lake Dam,NA,NA,Klamath,NA,NA,OR00587,Lost River,1923,NA,NA,https://www.usbr.gov/projects/index.php?id=125
dam_126,Mann Creek Dam,Idaho,Pacific Northwest,Snake River Area Office,Mann Creek Irrigation District,NA,-116.895389,44.392349,Mann Creek,Zoned Earthfill,Mann Creek,ID00285,Mann Creek,1965-1967,Morning Glory,2903,https://www.usbr.gov/projects/index.php?id=126
dam_132,Marble Bluff Dam,Nevada,Mid-Pacific,Lahontan Basin Area Office,U.S. Fish and Wildlife Service,NA,NA,NA,Washoe,NA,NA,NV20006,Truckee R.,1975,NA,3866,https://www.usbr.gov/projects/index.php?id=132
dam_136,Martinez Dam,California,Mid-Pacific,South-Central California Area Office,NA,NA,-122.11,38.0117,CVP-Delta,NA,Martinez,CA10168,Offstream storage,1946-1947,NA,72,https://www.usbr.gov/projects/index.php?id=136
dam_137,Marys Lake Dike Dam,Colorado,Great Plains,Eastern Colorado Area Office,NA,NA,-105.53351,40.34397,Colorado-Big Thompson,NA,Marys Lake,CO01660,Offstream,19xx-1949,NA,8050,https://www.usbr.gov/projects/index.php?id=137
dam_143,Mason Dam,Oregon,Pacific Northwest,Snake River Area Office,Baker Valley Irrigation District,17 miles from Baker,-118.00003,44.67335287,Baker,Rolled Earth and Rockfill,Phillips Lake,OR00577,Powder River,1965-1968,Ungated overflow chute at left abutment,4082,https://www.usbr.gov/projects/index.php?id=143
dam_147,McGee Creek Dam,Oklahoma,Great Plains,Oklahoma-Texas Area Office,McGee Creek Authority,"Near Farris, OK",-95.9151,34.3331,McGee Creek,NA,McGee Creek,OK82908,McGee Creek,1981-1987,154.1,613.5,https://www.usbr.gov/projects/index.php?id=147
dam_148,McKay Dam,Oregon,Pacific Northwest,Columbia-Cascades Area Office,NA,6 mi S of Pendleton,-118.7957668,45.605406,Umatilla Basin,Earthfill with u/s concrete facing,McKay,OR00583,McKay Creek,1923-1927,Gated,1330,https://www.usbr.gov/projects/index.php?id=148
dam_153,McPhee Dam,Colorado,Upper Colorado,Western Colorado Area Office - Durango,Dolores Water Conservancy District,NA,-108.5723876953125,37.57651247047376,Dolores,NA,McPhee,CO82915,Dolores,1983-1984,NA,6936,https://www.usbr.gov/projects/index.php?id=153
dam_154,Medicine Creek Dam,Nebraska,Great Plains,Nebraska-Kansas Area Office,NA,2 mi W. of Cambridge,-100.2167,40.3783,PSMBP-Frenchman-Cambridge,NA,Harry Strunk Lake,NE01073,Medicine Creek,1948-1949,NA,2415,https://www.usbr.gov/projects/index.php?id=154
dam_160,Meeks Cabin Dam,Wyoming,Upper Colorado,Provo Area Office,Bridger Valley Water Conservancy District,NA,-110.57979583740234,41.025328864161786,Lyman,Zoned earth and rockfill,Meeks Cabin,WY01390,Blacks Fork River,1966-1971,NA,8706,https://www.usbr.gov/projects/index.php?id=160
dam_164,Merritt Dam,Nebraska,Great Plains,Nebraska-Kansas Area Office,NA,NA,-100.86936,42.63282,PSMBP-Ainsworth,NA,Merritt,NE01074,Snake River,1961-1964,NA,2956,https://www.usbr.gov/projects/index.php?id=164
dam_303,Middle Cunningham Creek Diversion Dam,Colorado,Great Plains,NA,NA,"5.5 mi E Norrie, CO",-106.332,39.1945,Fryingpan-Arkansas,NA,NA,NA,Cunningham Creek,1976,NA,10055,https://www.usbr.gov/projects/index.php?id=303
dam_304,Midview Dam,Utah,Upper Colorado,Provo Area Office,Moon Lake Water Users Association,"12 Miles east of Duchesne, UT",-110.16456842422485,40.185283218249296,Moon Lake,"Earthfill, rock faced",Midview Reservoir,NA,Offstream,1935-1937,NA,5268,https://www.usbr.gov/projects/index.php?id=304
dam_173,Midway Creek Diversion Dam,Colorado,Great Plains,NA,NA,"7 mi E of Aspen, CO",-106.4123,39.1147,Fryingpan-Arkansas,NA,NA,NA,Midway Creek,1976,NA,10190.2,https://www.usbr.gov/projects/index.php?id=173
dam_177,Miller Diversion Dam,Oregon,Mid-Pacific,NA,NA,8 mi below Gerber Dam,NA,NA,Klamath,NA,NA,NA,Miller Creek,1924,NA,4227,https://www.usbr.gov/projects/index.php?id=177
dam_178,Minatare Dam,Nebraska,Great Plains,Pathfinder Irrigation District,NA,NA,-103.4925,41.9183,North Platte,NA,Lake Minatare,NE01075,Minatare Supply Canal,1912-1915,NA,4140,https://www.usbr.gov/projects/index.php?id=178
dam_181,Minidoka Dam,Idaho,Pacific Northwest,Upper Snake Field Office,Upper Snake Field Office,NA,-113.484177,42.66907,Minidoka,Concrete Gravity / Earthfill,Lake Walcott,ID00275,Snake River,1904-1906,Gated and flashboard section,4250,https://www.usbr.gov/projects/index.php?id=181
dam_186,Monticello Dam,California,Mid-Pacific,Central California Area Office,Solano County Water Agency,NA,-122.104272,38.513335,Solano,Concrete,Lake Berryessa,CA10170,Putah Creek,1953-1957,NA,456,https://www.usbr.gov/projects/index.php?id=186
dam_187,Moon Lake Dam,Utah,Upper Colorado,Provo Area Office,Moon Lake Water Users Association,Uinta Mountains,-110.48898696899414,40.560592955303996,Moon Lake,"Zoned Earthfill, Rock-faced",Moon Lake,UT10128,Lake Fork River,1935-1938,NA,8145,https://www.usbr.gov/projects/index.php?id=187
dam_106,Mormon Creek Diversion Dam,Colorado,Great Plains,NA,NA,"6.5 mi E of Norrie, CO",-106.3269,39.21193,Fryingpan-Arkansas,NA,NA,NA,Mormon Creek,1976,NA,10098,https://www.usbr.gov/projects/index.php?id=106
dam_110,Mormon Flat Dam,Arizona,Lower Colorado,Phoenix Area Office,Area Office Manager,"On the Salt River, about 51 miles northeast of Phoenix, Arizona",-111.443,33.5534,Salt River,Concrete thin arch,Canyon Lake,AZ10313,Salt River,1923-1926,Concrete lined channel,1666,https://www.usbr.gov/projects/index.php?id=110
dam_111,Mormon Island Auxilliary Dam,California,Mid-Pacific,NA,NA,NA,-121.1222,38.7081,CVP-Folsom Sly Park,NA,NA,CA10153,Blue Ravine,1956,NA,NA,https://www.usbr.gov/projects/index.php?id=111
dam_197,Morrow Point Dam,Colorado,Upper Colorado,Power Office,NA,NA,-107.53812789916992,38.45179852589292,Colorado River Storage,"Double-curvature, thin arch concrete",Morrow Point,CO01689,Gunnison River,1963-1968,NA,7165,https://www.usbr.gov/projects/index.php?id=197
dam_200,Mountain Park Dam,Oklahoma,Great Plains,Oklahoma-Texas Area Office,Mountain Park Master Conservancy District,NA,-98.9875,34.7386,Mountain Park,NA,Tom Steed,OK20502,West Otter Creek,1973-1975,NA,1423,https://www.usbr.gov/projects/index.php?id=200
dam_308,Mt Elbert Forebay Dam,Colorado,Great Plains,Eastern Colorado Area Office,NA,"12 mi SW of Leadville, CO",-106.455,39.0833,Fryingpan-Arkansas,NA,Mt. Elbert Forebay,CO00446,Offstream,1977-1978,NA,9652,https://www.usbr.gov/projects/index.php?id=308
dam_309,Nambe Falls Dam,New Mexico,Upper Colorado,Albuquerque Area Office,Pojoaque Valley Irrigation District,"25 mi N of Santa Fe, NM",-105.90581059455872,35.84533186008363,San Juan-Chama,Concrete and Earth Embankment,Nambe Falls,NM00412,Rio Nambe,1974-1976,NA,6840,https://www.usbr.gov/projects/index.php?id=309
dam_310,Navajo Dam,New Mexico,Upper Colorado,Western Colorado Area Office - Durango,NA,NA,-107.61297225952148,36.80236896863783,Colorado River Storage,Rolled Earthfill Embankment,Navajo,NM00120,San Juan River,1957-1963,NA,6108,https://www.usbr.gov/projects/index.php?id=310
dam_206,Nelson Dam,Montana,Great Plains,Montana Area Office,NA,"Five dikes located offstream about 19 miles northeast of Malta, Montana.",-107.5221,48.5334,Milk River,Homogeneous earthfill,Nelson,MT00574,Offstream Storage,1914-1915,NA,2,https://www.usbr.gov/projects/index.php?id=206
dam_211,New Melones Dam,California,Mid-Pacific,Central California Area Office,NA,NA,-120.5167,37.9528,CVP-New Melones,NA,NA,CA10246,Stanislaus River,1966-1979,NA,1135,https://www.usbr.gov/projects/index.php?id=211
dam_311,New Waddell Dam,Arizona,Lower Colorado,Phoenix Area Office,NA,"35 miles northwest of Phoenix, Arizona",-112.266,33.8437,Central Arizona,Zoned earthfill,Lake Pleasant,AZ82929,Agua Fria,1987-1994,Ungated freeflow (left); fuseplug embankment (right),1728,https://www.usbr.gov/projects/index.php?id=311
dam_217,Newton Dam,Utah,Upper Colorado,Provo Area Office,Newton Water Users Association,"1 Mile East of Newton, Utah",-111.97385787963867,41.895464674413226,Newton,Zoned Earthfill,Newton,UT10129,Clarkson Creek,1941-1946,NA,4781,https://www.usbr.gov/projects/index.php?id=217
dam_222,Nimbus Dam,California,Mid-Pacific,Central California Area Office,NA,NA,-121.2233,38.6367,CVP-Folsom,NA,Lake Natoma,CA10174,American River,1952-1955,NA,132,https://www.usbr.gov/projects/index.php?id=222
dam_223,No Name Creek Diversion Dam,Colorado,Great Plains,NA,NA,NA,-106.433,39.1119,Fryingpan-Arkansas,NA,NA,NA,No Name Creek,1976,NA,10170.5,https://www.usbr.gov/projects/index.php?id=223
dam_227,Norman Dam,Oklahoma,Great Plains,Oklahoma-Texas Area Office,Central Oklahoma Master Conservancy District,NA,-97.2181,35.2208,Norman,NA,Lake Thunderbird,OK30018,Little River,1962-1965,NA,1071,https://www.usbr.gov/projects/index.php?id=227
dam_312,North Cunningham Creek Diversion Dam,Colorado,Great Plains,NA,NA,"6 mi E of Norrie, CO",-106.32352,39.20128,Fryingpan-Arkansas,NA,NA,NA,Cunningham Creek,1976,NA,10087.5,https://www.usbr.gov/projects/index.php?id=312
dam_228,North Dam,Washington,Pacific Northwest,Grand Coulee Power Office,Grand Coulee Power Office,NA,-119.0172442,47.9404295,Columbia Basin,Zoned Earthfill,Banks Lake,WA00266,Offstream,1946-1951,NA,1580,https://www.usbr.gov/projects/index.php?id=228
dam_313,North Fork Diversion Dam,Colorado,Great Plains,NA,NA,"7 mi E of Norrie, CO",-106.32362,39.21585,Fryingpan-Arkansas,NA,1976,NA,North Fork Creek,NA,NA,10217.5,https://www.usbr.gov/projects/index.php?id=313
dam_237,Northside Diversion Dam,California,Mid-Pacific,NA,NA,NA,NA,NA,NA,NA,NA,NA,NA,NA,NA,NA,https://www.usbr.gov/projects/index.php?id=237
dam_238,Norton Dam,Kansas,Great Plains,Nebraska-Kansas Area Office,NA,NA,-99.935,39.8067,PSMBP-Almena,NA,Keith Sebelius Lake,KS00024,Prairie Dog Creek,1961-1964,NA,2347,https://www.usbr.gov/projects/index.php?id=238
dam_248,Ochoco Dam,Oregon,Pacific Northwest,Ochoco Irrigation District,Ochoco Irrigation District,NA,-120.72506,44.29903,Crooked River,Zoned Earthfill,Ochoco,NA,Ochoco Creek,1918-1920,Ungated,3143,https://www.usbr.gov/projects/index.php?id=248
dam_249,Olympus Dam,Colorado,Great Plains,Eastern Colorado Area Office,NA,NA,-105.4883,40.375,Colorado-Big Thompson,NA,Lake Estes,CO01662,Big Thompson River,1947-1949,NA,7481,https://www.usbr.gov/projects/index.php?id=249
dam_19,Ortega Dam,California,Mid-Pacific,South-Central California Area Office,Cachuma Operations and Maintenance Board,Near Summerland,-119.5917,34.4317,Cachuma,NA,Ortega,CA10176,Offstream Storage,1953-1954,NA,460.85,https://www.usbr.gov/projects/index.php?id=19
dam_315,Owyhee Dam,Oregon,Pacific Northwest,Snake River Area Office,Owyhee Irrigation District,NA,-117.2430896,43.6422,Owyhee,Concrete Thick Arch,Lake Owyhee,OR00582,Owyhee River,1928-1932,Morning Glory controlled by a 60 ft x 12 ft ring gate,2675,https://www.usbr.gov/projects/index.php?id=315
dam_314,O`Neill Dam,California,Mid-Pacific,South-Central California Area Office,California Department of Water Resources,NA,-121.05,37.1167,Central Valley,NA,O`Neill Forebay,CA82903,San Luis Creek,1963-1967,NA,233,https://www.usbr.gov/projects/index.php?id=314
dam_194,O`Sullivan Dam,Washington,Pacific Northwest,Columbia-Cascades Area Office,NA,NA,-119.27,46.9806,Columbia Basin,Zoned Earthfill,Potholes,WA00268,Lower Crab Creek,1947-1949,Radial gates,1061,https://www.usbr.gov/projects/index.php?id=194
dam_316,Pactola Dam,South Dakota,Great Plains,Dakotas Area Office,NA,NA,-103.4883,44.0717,PSMBP-Rapid Valley Unit,NA,Pactola,SD01139,Rapid Creek,1952-1956,NA,4655,https://www.usbr.gov/projects/index.php?id=316
dam_317,Palisades Dam,Idaho,Pacific Northwest,Upper Snake Field Office,Upper Snake Field Office,NA,-111.202626,43.332498,Palisades,Zoned Earthfill,Palisades,ID00273,SF of Snake River,1951-1957,radial gates,5630,https://www.usbr.gov/projects/index.php?id=317
dam_201,Palo Verde Diversion Dam,Arizona and California,Lower Colorado,Palo Verde Irrigation District,NA,"On the Colorado River 9 miles northeast of Blythe, California",-114.5107,33.7325,Palo Verde Diversion,Concrete ogee gated weir,NA,AZ10314,Colorado River,1957,Concrete gate structure,296,https://www.usbr.gov/projects/index.php?id=201
dam_203,Paonia Dam,Colorado,Upper Colorado,Western Colorado Area Office - Grand Junction,North Fork Water Conservancy District,16 mi NE of Paonia,-107.3532485961914,38.941744639115996,Paonia,Zoned Earthfill,Paonia,CO01691,Muddy Creek,1959-1962,NA,6460,https://www.usbr.gov/projects/index.php?id=203
dam_204,Paradise Diversion Dam,Montana,Great Plains,Montana Area Office,Paradise Valley Irrigation District,"On the Milk River 4 miles southeast of Chinook, Montana",-109.1901,48.5663,Milk River,Concrete ogee spillway and sluiceway and compacted earthfill dike,NA,MT 00586,Milk River,1966,Overflow crest,2,https://www.usbr.gov/projects/index.php?id=204
dam_207,Parker Dam,Arizona and California,Lower Colorado,Lower Colorado Dams Office,Lower Colorado Dams Office,"12 mi northeast of Parker, AZ",-114.1394,34.2966,Parker-Davis,Concrete arch,Lake Havasu,AZ10312,Colorado River,1934-1938,Overflow section at center of dam,455,https://www.usbr.gov/projects/index.php?id=207
dam_212,Pathfinder Dam,Wyoming,Great Plains,North Platte Projects Field Office,NA,"47 miles southwest of Casper, WY",-106.8533,42.4683,North Platte,Cyclopean masonry (granite),Pathfinder,WY01296,North Platte River,1905-1909,NA,5858.1,https://www.usbr.gov/projects/index.php?id=212
dam_213,Pathfinder Dike Dam,Wyoming,Great Plains,Wyoming Area Office,NA,NA,-106.855,42.8075,North Platte,NA,Pathfinder,WY01295,North Platte River,1909-1910,NA,5868.1,https://www.usbr.gov/projects/index.php?id=213
dam_318,Pilot Butte Dam,Wyoming,Great Plains,Big Horn Basin Field Office,Midvale Irrigation District,NA,-108.7531,43.197,PSMBP-Riverton,NA,Pilot Butte,WY01381,Offstream,1926,NA,5467,https://www.usbr.gov/projects/index.php?id=318
dam_218,Pineview Dam,Utah,Upper Colorado,Provo Area Office,Ogden River Water Users Association,"5 miles east of Ogden, Utah",-111.84270858764648,41.25402401249621,Ogden River,Zoned earthfill,Pineview,UT10132,Ogden River,1934-1937,NA,4908,https://www.usbr.gov/projects/index.php?id=218
dam_219,Pinto Dam,Washington,Pacific Northwest,Columbia-Cascades Area Office,NA,NA,-119.2533,47.4483,Columbia Basin,Zoned Earthfill,Billy Clapp Lake,WA00269,Offstream Storage,1946-1948,Ungated,1351,https://www.usbr.gov/projects/index.php?id=219
dam_319,Pishkun Dikes,Montana,Great Plains,Montana Area Office,Greenfields Irrigation District,"Eight dikes, located offstream about 16 miles southwest of Choteau, Montana",-112.5058,47.6818,Sun River,Zoned earthfill,Pishkun,MT00575,Offstream Storage,1930-1931,NA,4,https://www.usbr.gov/projects/index.php?id=319
dam_224,Platoro Dam,Colorado,Upper Colorado,Albuquerque Area Office,Conejos Water Conservancy,"1 mile from Platoro, Co",-106.5483283996582,37.35073917834847,San Luis Valley,Earthfill,Platoro,CO1671,Conejos River,1949-1951,NA,10048,https://www.usbr.gov/projects/index.php?id=224
dam_229,Pole Hill Afterbay Dam,Colorado,Great Plains,NA,NA,NA,-105.33156,40.36642,Colorado-Big Thompson,NA,Pole Hill Afterbay,CO82917,Little Hell Creek,1953,NA,6597.25,https://www.usbr.gov/projects/index.php?id=229
dam_320,Prosser Creek Dam,California,Mid-Pacific,Lahontan Basin Area Office,NA,NA,NA,NA,Washoe,NA,Prosser Creek,CA10179,Prosser Creek,1959-1962,NA,5761,https://www.usbr.gov/projects/index.php?id=320
dam_232,Pueblo Dam,Colorado,Great Plains,Eastern Colorado Area Office,NA,6 mi W of Pueblo CO,-104.73,38.2839,Fryingpan-Arkansas,NA,Pueblo,CO00299,Arkansas River,1970-1975,NA,4925,https://www.usbr.gov/projects/index.php?id=232
dam_234,Putah Dam,California,Mid-Pacific,Central California Area Office,Solano County Water Agency,NA,NA,NA,Solano,NA,NA,NA,Putah Creek,1957,NA,NA,https://www.usbr.gov/projects/index.php?id=234
dam_239,Rainbow Diversion Dam,California,Mid-Pacific,NA,NA,NA,NA,NA,Orland,NA,NA,CA82904,Stony Creek,1914,NA,1289,https://www.usbr.gov/projects/index.php?id=239
dam_240,Ralston Dam,Wyoming,Great Plains,Big Horn Basin Field Office,NA,NA,-108.86416,44.72639,Shoshone,NA,Ralston,NA,Garland Canal,1908,NA,4599,https://www.usbr.gov/projects/index.php?id=240
dam_243,Rattlesnake Dam,Colorado,Great Plains,Eastern Colorado Area Office,NA,NA,-105.2889,40.3708,Colorado-Big thompson,NA,Pinewood,CO01663,Rattlesnake Creek,1951-1952,NA,6595,https://www.usbr.gov/projects/index.php?id=243
dam_244,Red Bluff Diversion Dam,California,Mid-Pacific,Northern California Area Office,NA,NA,NA,NA,CVP-Sacramento Canals,NA,NA,NA,Sacramento River,1964,NA,NA,https://www.usbr.gov/projects/index.php?id=244
dam_250,Red Fleet Dam,Utah,Upper Colorado,Provo Area Office,Uintah Water Conservancy District,"10 miles northeast of Vernal, Utah",-109.44219589233398,40.580282627221635,CUP-Jensen Unit,earthfill embankment,Red Fleet,UT82901,Big Bush Creek,1977 - 1980,NA,5627,https://www.usbr.gov/projects/index.php?id=250
dam_189,Red Willow Creek Diversion Dam,Nebraska,Great Plains,NA,NA,NA,-100.54177,40.28167,PSMBP-Frenchman-Cambridge,NA,NA,NA,Red Willow Creek,1963,NA,NA,https://www.usbr.gov/projects/index.php?id=189
dam_321,Red Willow Dam,Nebraska,Great Plains,Nebraska-Kansas Area Office,NA,11 mi N of McCook,-100.6656,40.3639,French-Cambridge (PSMBP),NA,Hugh Butler Lake,NE01076,Red Willow Creek,1960-1962,NA,2634,https://www.usbr.gov/projects/index.php?id=321
dam_267,Reservoir A Dam,Idaho,Pacific Northwest,Lewiston Orchards Irrigation District,Lewiston Orchards Irrigation District,7 mi SE of Lewiston,-116.8574309,46.371998,Lewiston Orchards,Earthfill,Mann Lake,ID00261,Offstream Storage - Lindsey Creek,1907 & 1922,NA,1813,https://www.usbr.gov/projects/index.php?id=267
dam_581,Ridges Basin Dam,Colorado,Upper Colorado,NA,NA,NA,NA,NA,NA,NA,NA,NA,NA,NA,NA,NA,https://www.usbr.gov/projects/index.php?id=581
dam_195,Ridgway Dam,Colorado,Upper Colorado,Western Colorado Area Office - Grand Juction,Tri-County Water Conservancy District,"6 miles north of Ridgway, Colorado",-107.74206161499023,38.19918230382011,Dallas Creek,Rolled earthfill,Ridgway,CO82912,Uncompahgre River,1978-1987,NA,6888.5,https://www.usbr.gov/projects/index.php?id=195
dam_198,Rifle Gap Dam,Colorado,Upper Colorado,Western Colorado Area Office - Grand Juction,Silt Water Conservancy District,"5.5 miles north of Rifle, Colorado",-107.76025772094727,39.62720076390745,Silt,Zoned earthfill,Rifle Gap,CO01692,Rifle Creek,1964-1967,NA,5978,https://www.usbr.gov/projects/index.php?id=198
dam_199,Ririe Dam,Idaho,Pacific Northwest,Upper Snake Field Office,Upper Snake Field Office,NA,-111.7425,43.5833,Ririe,Earth and Rockfill,Ririe,ID00344,Willow Creek,1970-1977,radial gates,5128,https://www.usbr.gov/projects/index.php?id=199
dam_322,Robles Dam,California,Mid-Pacific,NA,NA,NA,NA,NA,NA,NA,NA,NA,NA,NA,NA,NA,https://www.usbr.gov/projects/index.php?id=322
dam_323,Roza Diversion Dam,Washington,Pacific Northwest,Columbia-Cascades Area Office,NA,NA,-120.4658,46.74923,Yakima,NA,NA,WA00275,Yakima River,1939,NA,1205,https://www.usbr.gov/projects/index.php?id=323
dam_208,Ruedi Dam,Colorado,Great Plains,Eastern Colorado Area Office,NA,NA,-106.8181,39.3631,Fryingpan-Arkansas,NA,Ruedi,CO01664,Fryingpan River,1964-1968,NA,7788,https://www.usbr.gov/projects/index.php?id=208
dam_268,Rye Patch Dam,Nevada,Mid-Pacific,Pershing County Water Conservation District,NA,22 mi NE of Lovelock,-118.3083,40.4617,Humboldt,NA,Rye Patch,NV10124,Humboldt River,1935-1936,NA,4144,https://www.usbr.gov/projects/index.php?id=268
dam_214,Salmon Lake Dam,Washington,Pacific Northwest,Columbia-Cascades Area Office,Okanogan Irrigation District,NA,-119.74496,48.56036,Okanogan,Zoned Earthfill,Conconully Lake,WA00291,Offstream Storage,1919-1921,Ungated Siphon,2325.5,https://www.usbr.gov/projects/index.php?id=214
dam_324,San Acacia Diversion Dam,New Mexico,Upper Colorado,Middle Rio Grande Conservancy District,Middle Rio Grande Conservancy District,"at San Acacia, NM",NA,NA,Middle Rio Grande,concrete gate structure,NA,NA,Rio Grande,1934 and rehabilitated in 1957,NA,4668.5,https://www.usbr.gov/projects/index.php?id=324
dam_325,San Justo Dam,California,Mid-Pacific,South-Central California Area Office,San Benito County Water District,NA,NA,NA,CVP-San Felipe Division,NA,San Justo,CA82934,Offtream Storage,1987,NA,508.5,https://www.usbr.gov/projects/index.php?id=325
dam_270,Sanford Dam,Texas,Great Plains,Canadian River Municipal Water Authority,Canadian River Municipal Water Authority,NA,-101.55251,35.71367,Canadian River,NA,Lake Meredith,TX00023,Canadian River,1962-1965,NA,3011,https://www.usbr.gov/projects/index.php?id=270
dam_220,Satanka Dike Dam,Colorado,Great Plains,Eastern Colorado Area Office,Northern Colorado Water Conservancy District,NA,-105.17569,40.59957,Colorado-Big Thompson,NA,Horsetooth,CO01665,Offstream Storage,1946-1949,NA,5443,https://www.usbr.gov/projects/index.php?id=220
dam_326,Sawyer Diversion Dam,Colorado,Great Plains,NA,NA,4.5 mi E of Norrie CO,-106.38123,39.15564,Fryingpan-Arkansas,NA,NA,NA,Sawyer Creek,1970-1973,NA,10084.5,https://www.usbr.gov/projects/index.php?id=326
dam_327,Scofield Dam,Utah,Upper Colorado,Provo Area Office,Carbon Water Conservancy District,NA,-111.11949920654297,39.786204925959254,Scofield,Zoned earthfill,Scofield,UT10133,Price River,1943-1946,NA,7636,https://www.usbr.gov/projects/index.php?id=327
dam_225,Scoggins Dam,Oregon,Pacific Northwest,Columbia-Cascades Area Office,NA,NA,-123.19965,45.4724,Tualatin,Zoned Earthfill,Henry Hagg Lake,OR10020,Scoggins Creek,1972-1975,Radial Gates,313,https://www.usbr.gov/projects/index.php?id=225
dam_233,Seminoe Dam,Wyoming,Great Plains,Wyoming Area Office,NA,NA,-106.9083,42.1569,Kendrick,NA,Seminoe,WY01297,North Platte River,1936-1939,NA,6361,https://www.usbr.gov/projects/index.php?id=233
dam_328,Senator Wash Dam,California,Lower Colorado,Yuma Area Office,Imperial Irrigation District,"18 miles northeast of Yuma, Arizona",-114.4783,32.91,Colorado River Front Work & Levee System,Rolled earth embankment,Senator Wash,CA10185,Offstream,1964-1966,Uncontrolled concrete overflow with flip buckets,265,https://www.usbr.gov/projects/index.php?id=328
dam_329,Shadehill Dam,South Dakota,Great Plains,Dakotas Area Office,NA,NA,-102.2033,45.7533,PSMBP-Shadehill,NA,Shadehill,SD01141,Grand River,1949-1951,NA,2318,https://www.usbr.gov/projects/index.php?id=329
dam_235,Shadow Mountain Dam,Colorado,Great Plains,Eastern Colorado Area Office,Northern Colorado Water Conservancy District,NA,-105.84102,40.20785,Colorado-Big Thompson,NA,Shadow Mountain,CO01666,Colorado River,1944-1946,NA,8375,https://www.usbr.gov/projects/index.php?id=235
dam_241,Shasta Dam,California,Mid-Pacific,Northern California Area Office,NA,NA,NA,NA,CVP-Shasta/Trinity,NA,Shasta Lake,CA10186,Sacramento River,1938-1945,NA,1077.5,https://www.usbr.gov/projects/index.php?id=241
dam_245,Silver Jack Dam,Colorado,Upper Colorado,Western Colorado Area Office - Grand Junction,Bostwick Park Water Conservancy District,NA,-107.54310607910156,38.23206979408184,Bostwick Park,Rolled-earthfilled,Silver Jack,CO01693,Cimarron Creek,1966-1971,NA,8939,https://www.usbr.gov/projects/index.php?id=245
dam_246,Sly Park Dam,California,Mid-Pacific,Central California Area Office,El Dorado Irrigation District,NA,-120.56,38.7208,CVP-Folsom Sly Park,NA,Jenkinson Lake,CA10187,Sly Park Creek,1953-1955,NA,3482,https://www.usbr.gov/projects/index.php?id=246
dam_251,Soldier Canyon Dam,Colorado,Great Plains,Eastern Colorado Area Office,Northern Colorado Water Conservancy District,NA,-105.1033,40.5883,Colorado-Big Thompson,NA,Horsetooth,CO01667,Offstream Storage,1946-1949,NA,5443,https://www.usbr.gov/projects/index.php?id=251
dam_190,Soldier Creek Dam,Utah,Upper Colorado,Provo Area Office,Central Utah Water Conservancy District,NA,-111.02628707885742,40.13579923864353,CUP - Bonneville Unit,Zoned earthfill,Strawberry,UT10135,Strawberry River,1970-1974,NA,7612,https://www.usbr.gov/projects/index.php?id=190
dam_191,Soldiers Meadow Dam,Idaho,Pacific Northwest,Snake River Area Office,Lewiston Orchards Irrigation District,"Approximately 25 miles southeast of Lewiston, Idaho",-116.7367,46.16727,Lewiston Orchards,Zoned Earthfill,Soldiers Meadow,ID10002,Webb Creek,1923,Ungated overflow,4529,https://www.usbr.gov/projects/index.php?id=191
dam_196,South Cunningham Creek Diversion Dam,Colorado,Great Plains,NA,NA,5.5 mi E of Norrie CO,-106.33298,39.19271,Fryingpan-Arkansas,NA,NA,NA,Cunningham Creek,1976,NA,10539,https://www.usbr.gov/projects/index.php?id=196
dam_330,South Fork Diversion Dam,Colorado,Great Plains,NA,NA,NA,-106.35222,39.14158,Fryingpan-Arkansas,NA,NA,NA,Fryingpan-Arkansas,1965-1971,NA,10003,https://www.usbr.gov/projects/index.php?id=330
dam_331,Spring Canyon Dam,Colorado,Great Plains,Eastern Colorado Area Office,Northern Colorado Water Conservancy District,NA,-105.135,40.53,Colorado-Big Thompson,NA,Horsetooth,CO01668,Offstream Storage,1946-1949,NA,5443,https://www.usbr.gov/projects/index.php?id=331
dam_202,Spring Creek Debris Dam,California,Mid-Pacific,Northern California Area Office,NA,NA,NA,NA,CVP-Shasta/Trinity,NA,Spring Creek,CA10190,Spring Creek,1961-1963,NA,816,https://www.usbr.gov/projects/index.php?id=202
dam_332,St. Mary Diversion Dam,Montana,Great Plains,Montana Area Office,NA,"On the St. Mary River two miles southeast of Babb, Montana.",-113.4169,48.8521,Milk River,Concrete weir and sluiceway,NA,MT82932,St. Mary River,1915,Overflow crest,4,https://www.usbr.gov/projects/index.php?id=332
dam_205,Stampede Dam,California,Mid-Pacific,Lahontan Basin Area Office,NA,NA,-120.11,39.1078,Washoe,NA,Little Truckee R.,CA10192,Little Truckee R.,1966-1970,NA,5974,https://www.usbr.gov/projects/index.php?id=205
dam_209,Starvation Dam,Utah,Upper Colorado,Provo Area Office,Central Utah Water Conservancy District,NA,-110.44418334960938,40.18875731912906,CUP-Bonneville Unit,NA,Starvation Reservoir,NA,Strawberry River,1970,NA,5725,https://www.usbr.gov/projects/index.php?id=209
dam_210,Stateline Dam,Utah,Upper Colorado,Provo Area Office,Bridger Valley Water Conservancy District,28 mi S of Ft. Bridger,-110.39,40.99,Lyman,Earthfill,Stateline,UT82904,East Fork of Smiths Fork,1977-1979,NA,9176,https://www.usbr.gov/projects/index.php?id=210
dam_215,Steinaker Dam,Utah,Upper Colorado,Provo Area Office,Uintah Water Conservancy District,4 miles northwest of Vernal Utah,-109.53094482421875,40.50566599541602,CUP-Vernal Unit,Zoned earthfill,Steinaker,NA,Offstream,1959-1962,NA,5527,https://www.usbr.gov/projects/index.php?id=215
dam_216,Stewart Mountain Dam,Arizona,Lower Colorado,Phoenix Area Office,Area Office Manager,"On the Salt River, 41 miles northeast of Phoenix, Arizona",-111.5361,33.5666,Salt River,Concrete thin arch,Saguaro Lake,AZ10318,Salt River,1928-1930,Concrete weir and concrete lined open channel,1533,https://www.usbr.gov/projects/index.php?id=216
dam_333,Stony Gorge Dam,California,Mid-Pacific,Northern California Area Office,Orland Unit Water Users` Association,NA,NA,NA,Orland,NA,Stony George,CA10194,Stony Creek,1926-1928,NA,847,https://www.usbr.gov/projects/index.php?id=333
dam_221,Sugar Loaf Dam,Colorado,Great Plains,Eastern Colorado Area Office,NA,15 mi E of Basalt,-106.3733,39.2517,Fryingpan-Arkansas,NA,Turquoise Lake,CO01669,Lake Fork of the Arkansas,1965-1968,NA,9879,https://www.usbr.gov/projects/index.php?id=221
dam_226,Sumner Dam,New Mexico,Upper Colorado,Albuquerque Area Office,Carlsbad Irrigation District,NA,-104.38758373260498,34.60716840001175,Carlsbad,NA,Sumner Lake,NM00130,Pecos River,1936-1937,NA,4301,https://www.usbr.gov/projects/index.php?id=226
dam_230,Sun River Diversion Dam,Montana,Great Plains,Montana Area Office,Greenfields Irrigation District,"On the North Fork of Sun River, 17 miles north west of Augusta, Montana, three miles downstream from Gibson Dam.",-112.7066,47.6211,Sun River,Concrete arch weir,NA,MT00585,North Fork Sun River,1915,Overflow crest,4,https://www.usbr.gov/projects/index.php?id=230
dam_231,Superior Courtland Diversion Dam,Nebraska,Great Plains,NA,NA,NA,-98.37712,40.06759,PSMBP-Bostwick,NA,NA,NA,Republican River,1950,NA,NA,https://www.usbr.gov/projects/index.php?id=231
dam_334,Swift Current Dike,Montana,Great Plains,Montana Area Office,Paradise Valley Irrigation District,"On Swiftcurrent Creek, 3 miles southwest of Babb, Mont.",-113.2501,48.5107,Milk River,"Earth and rock, timber-crib core, nonoverflow",None,MT82932,St. Mary River,1915,NA,4,https://www.usbr.gov/projects/index.php?id=334
dam_236,Taylor Park Dam,Colorado,Upper Colorado,Western Colorado Area Office - Grand Junction,Uncompahgre Valley Water Users Association,"30 miles northeast of Gunnison, CO",-106.60652160644531,38.818001324034284,Uncompahgre,Zoned earthfill,Taylor Park,CO00151,Taylor River,1935-1937,NA,9343,https://www.usbr.gov/projects/index.php?id=236
dam_299,Terminal Dam,California,Mid-Pacific,Mid-Pacific Regional Office,Solano County Water Agency,NA,NA,NA,Solano,NA,NA,CA10195,Offstream Storage,1959,NA,90,https://www.usbr.gov/projects/index.php?id=299
dam_242,Theodore Roosevelt Dam,Arizona,Lower Colorado,Phoenix Area Office,Area Office Manager,"On the Salt River, about 76 miles northeast of Phoenix, Arizona",-111.1613,33.6718,Salt River,Concrete gravity arch,Theodore Roosevelt Lake,AZ10317,Salt River,1903-1911,NA,2218,https://www.usbr.gov/projects/index.php?id=242
dam_300,Thief Valley Dam,Oregon,Pacific Northwest,Snake River Area Office,Lower Powder River Irrigation District,"16 mi N of Baker, OR",-117.7810764,45.012996,"Baker, Union",Concrete Slab and Buttress,Thief Valley,OR00592,Powder River,1931-1932,Ungated overflow,3143,https://www.usbr.gov/projects/index.php?id=300
dam_247,Three Mile Falls Diversion Dam,Oregon,Pacific Northwest,Columbia-Cascades Area Office,West Extension Irrigation District,"Three miles south of Umatilla, Oregon",-119.3245482,45.882972,Umatilla Basin,NA,NA,OR00588,Umatilla River,1914,NA,404.3,https://www.usbr.gov/projects/index.php?id=247
dam_252,Tiber Dam,Montana,Great Plains,Montana Area Office,NA,NA,-111.0969,48.3222,Lower Marias,Zoned earthfill (dike closes low saddle beginning about 1 mile southwest of the right abutment of the dam).,Lake Elwell,MT00579,Marias River,1952-1956,Concrete crest and concrete-lined open channel at right abutment of dam controlled by three 22- by 38- ft radial gates.,3,https://www.usbr.gov/projects/index.php?id=252
dam_253,Tieton Dam,Washington,Pacific Northwest,Columbia-Cascades Area Office,NA,NA,-121.12808,46.657198,Yakima,Zoned Earthfill,Rimrock Lake,WA00273,Tieton river,1917-1925,Drum gates,2935,https://www.usbr.gov/projects/index.php?id=253
dam_188,Trenton Dam,Nebraska,Great Plains,Nebraska-Kansas Area Office,NA,2.5 mi W of Trenton,-101.06,40.17,PSMBP-Frenchman-Cambridge,NA,Swanson,NE01078,Republican River,1949-1953,NA,2793,https://www.usbr.gov/projects/index.php?id=188
dam_266,Trinity Dam,California,Mid-Pacific,Northern California Area Office,NA,NA,NA,NA,CVP-ShastaTrinity,NA,Clair Engle Lake,CA10196,Trinity River,1957-1962,NA,2395,https://www.usbr.gov/projects/index.php?id=266
dam_192,Tub Springs Creek Diversion Dam,Nebraska,Great Plains,NA,NA,NA,-103.68886,41.85086,North Platte,NA,1954,NA,Tub springs Creek,NA,NA,4000,https://www.usbr.gov/projects/index.php?id=192
dam_307,Twin Buttes Dam,Texas,Great Plains,Oklahoma-Texas Area Office,NA,NA,-100.5333,31.3767,San Angelo,NA,Twin Buttes,TX00022,Spring Creek,1960-1963,NA,1991,https://www.usbr.gov/projects/index.php?id=307
dam_305,Twin Lakes Dam,Colorado,Great Plains,Eastern Colorado Area Office,NA,13 mi S of Leadville,-106.4617,39.0833,Fryingpan-Arkansas,NA,Twin Lakes,CO02045,Lake Creek,1978,NA,9210,https://www.usbr.gov/projects/index.php?id=305
dam_193,Twitchell Dam,California,Mid-Pacific,South-Central California Area Office,Santa Maria Valley River Water Conservation District,NA,-120.3167,34.9778,Santa Maria,NA,Twitchell,CA10197,Cuyama River,1956-1958,NA,692,https://www.usbr.gov/projects/index.php?id=193
dam_256,Unity Dam,Oregon,Pacific Northwest,Snake River Area Office,Burnt River Irrigation District,"7 miles east of Hereford, Oregon",-118.1806,44.5042,Burnt River,Zoned Earthfill,Unity,OR00593,Burnt River,1936-1938,A concrete chute at the right abutment controlled by two 24-foot-wide by 16-foot-high radial gates,3827.3,https://www.usbr.gov/projects/index.php?id=256
dam_301,Upper Slaven Diversion Dam,Nevada,Upper Colorado,NA,NA,"11 mi E of Battle Mountain, NV",NA,NA,Humboldt,NA,NA,NA,Humboldt,1958,NA,4560,https://www.usbr.gov/projects/index.php?id=301
dam_257,Upper Stillwater Dam,Utah,Upper Colorado,Provo Area Office,Central Utah Water Conservancy District,NA,-110.6992,40.56,CUP-Bonneville Unit,Roller compacted concrete,Upper Stillwater,NA,Rock Creek,1983-1987,NA,8180,https://www.usbr.gov/projects/index.php?id=257
dam_258,Vallecito Dam,Colorado,Upper Colorado,Western Colorado Area Office - Durango,Pine River Irrigation District,"18 miles northeast of Durango, CO",-107.57537841796875,37.37775337577529,Pine River,Zoned earthfill,Vallecito,CO01695,Pine River (Los Pinos),1938-1941,NA,7673,https://www.usbr.gov/projects/index.php?id=258
dam_335,Vandalia Diversion Dam,Montana,Great Plains,Paradise Valley Irrigation District,NA,"On the Milk River 3 miles west of Vandalia, Montana.",-106.9749,48.3727,Milk River,"Reinforced concrete slab and buttress weir, movable crest embankment wing",NA,MT00584,Milk River,1917,Movable overflow crest. Auxiliary crest,2,https://www.usbr.gov/projects/index.php?id=335
dam_260,Vega Dam,Colorado,Upper Colorado,Western Colorado Area Office - Grand Junction,Collbran Conservancy District,"10 miles east of Collbran, CO",-107.81081199645996,39.222990274902536,Collbran,"Zoned rolled earth, rockfill",Vega,CO01697,Plateau Creek,1957-1959,NA,7997,https://www.usbr.gov/projects/index.php?id=260
dam_302,Virginia Smith Dam,Nebraska,Great Plains,Nebraska-Kansas Area Office,Twin Loups Irrigation District,NA,-99.2,41.8333,PSMBP-North Loup,NA,Calamus River,NE82904,Calamus River,1985,NA,2259,https://www.usbr.gov/projects/index.php?id=302
dam_83,Wanship Dam,Utah,Upper Colorado,Provo Area Office,Weber Basin Water Conservancy District,"1.5 miles south of Wanship, UT",-111.40548706054688,40.788558849975054,Weber Basin,Zoned earthfill,Rockport Lake,UT10131,Weber River,1954-1957,NA,6055,https://www.usbr.gov/projects/index.php?id=83
dam_85,Warm Springs Dam,Oregon,Pacific Northwest,Warmsprings Irrigation District,NA,"13 miles southwest of Juntura, Oregon",-118.2092857,43.58505,Vale,NA,Warm Springs,OR00082,Middle Fork of the Malheur River,1918-1919,Overflow crest controlled by flashboards,3409,https://www.usbr.gov/projects/index.php?id=85
dam_86,Wasco Dam,Oregon,Pacific Northwest,Columbia-Cascades Area Office,Juniper Flat District Improvement Company,NA,-121.6895197,45.1748403,Wapinitia,Zoned Earthfill,Clear Lake,OR00326,Clear Creek,1958-1959,Outlet overflow weir,3526,https://www.usbr.gov/projects/index.php?id=86
dam_281,Webster Dam,Kansas,Great Plains,Nebraska-Kansas Area Office,NA,NA,-99.4217,39.4083,PSMBP-Webster,NA,Webster,KS00025,SF of Solomon Rive,1953-1956,NA,1944,https://www.usbr.gov/projects/index.php?id=281
dam_87,Whalen Diversion Dam,Wyoming,Great Plains,North Platte Projects Field Office,Goshen Irrigation District,NA,-104.62908,42.24766,North Platte,NA,NA,NA,North Platte River,1909,NA,4292,https://www.usbr.gov/projects/index.php?id=87
dam_90,Whiskeytown Dam,California,Mid-Pacific,Northern California Area Office,NA,NA,NA,NA,CVP-Shasta/Trinity,NA,Whiskeytown Lake,CA10204,Clear Creek,1960-1963,NA,1228,https://www.usbr.gov/projects/index.php?id=90
dam_91,Wickiup Dam,Oregon,Pacific Northwest,Columbia-Cascades Area Office,North Unit Irrigation District,NA,-121.7039162,43.6953977,Deschutes,Zoned Earthfill,Wickiup,OR10022,Deschutes River,1939-1949,Emergency unaged with stop logs and fuseplug,4347,https://www.usbr.gov/projects/index.php?id=91
dam_98,Willow Creek Co Dam,Colorado,Great Plains,Eastern Colorado Area Office,Northern Colorado Water Conservancy District,NA,-105.9417,40.1467,Colorado-Big Thompson,NA,Willow Creek,CO01670,Willow Creek,1951-1953,NA,8140,https://www.usbr.gov/projects/index.php?id=98
dam_95,Willow Creek Dam,Montana,Great Plains,Montana Area Office,NA,"On Willow Creek, tributary to the Sun River, in Lewis and Clark County about 5 miles northwest of Augusta, Montana. Four small earth dikes close low areas north of the dam.",-111.6998,45.7138,Sun River,Modified homogeneous earthfill,Willow Creek,MT00577,Willow Creek,1907-1911,"Uncontrolled, open channel emergency spillway in dike #5 about 3,600 ft north of dam with concrete cutoff wall and rock paving at crest.",4,https://www.usbr.gov/projects/index.php?id=95
dam_282,Willwood Diversion Dam,Wyoming,Great Plains,Big Horn Basin Field Office,Willwood Irrigation District,NA,-108.90976,44.67157,Shoshone,NA,NA,WY01382,Shoshone River,1924,NA,4514,https://www.usbr.gov/projects/index.php?id=282
dam_101,Wind River Diversion Dam,Wyoming,Great Plains,Big Horn Basin Field Office,Midvale Irrigation District,NA,-108.95534,43.22476,PSMBP - Riverton Unit,NA,NA,WY01383,Wind River,1921-1923,NA,5581.25,https://www.usbr.gov/projects/index.php?id=101
dam_102,Woodston Diversion Dam,Kansas,Great Plains,NA,NA,"2 miles West of Woodston, KS",-99.1331,39.4486,PSMBP-Webster,NA,NA,NA,Solomon River,1957-1959,NA,1700,https://www.usbr.gov/projects/index.php?id=102
dam_262,Yellowstone River Diversion Dam,Montana,Great Plains,Montana Area Office,Huntley Project Irrigation District,"On the Yellowstone River, about 2 miles southwest of Huntley, Montana.",-108.34865927696228,45.87454673186175,Huntley,Concrete weir,NA,NA,Yellowstone River,1934,Concrete weir,3,https://www.usbr.gov/projects/index.php?id=262
dam_265,Yellowtail Afterbay Dam,Montana,Great Plains,Montana Area Office,NA,2.2 miles downstream from Yellowtail Dam,-107.92131900787354,45.31620533823279,"Yellowtail Unit, Pick-Sloan Missouri River Basin Program",Concrete gravity with embankment wings,Yellowtail Afterbay,MT00582,Bighorn River,1964-1965,"Concrete ogee crest, controlled by five 30- by 13.5-ft radial gates",3,https://www.usbr.gov/projects/index.php?id=265
dam_264,Yellowtail Dam,Montana,Great Plains,Montana Area Office,NA,"On Bighorn River, near Fort Smith, Montana in Big Horn County in South-Central Montana, 43 miles southwest of Hardin Montana.",-107.95775413513184,45.3068700743631,"Yellowtail Unit, Pick-Sloan Missouri River Basin Program",Concrete thin arch,Bighorn River,MT00576,Bighorn River,1963-1966,"Concrete tunnel through the left abutment, controlled by two 25- by 64.4- ft radial gates.",3,https://www.usbr.gov/projects/index.php?id=264
